{"type": "FeatureCollection", "metadata": {"source_name": "ESA WorldCover 2021 v200", "source_url": "https://esa-worldcover.s3.eu-central-1.amazonaws.com/v200/2021/map/ESA_WorldCover_10m_2021_v200_N33E111_Map.tif", "documentation_url": "https://esa-worldcover.org/en/data-access", "source_year": 2021, "resolution_m": 10, "retrieved_date": "2026-09-16", "source_sha256": "4b07ae88f6e73fc9a7be2a7898915e1e25ac15ed2e981296c749773ff401a296", "attribution": "© ESA WorldCover project 2021 / Contains modified Copernicus Sentinel data (2021) processed by ESA WorldCover consortium. CC BY 4.0.", "confidence_note": "2021 年树木覆盖分类作为林地代理，可能包含果园；不是 2026 年实测森林边界。水体仅检出一个栅格，不能排除旧影像中的小池塘。 5 米是几何保留宽度，10 米分类栅格无法证明 5 米边界精度。尚未完成 Google Earth 最新影像核验。", "water_note": "疑似池塘不自动免侦察；已分类水体仅在向内退让 10 米后才可扣除。", "forest_note": "森林向内 5 米以内保留侦察；宽度不足 10 米的窄林带全部保留。", "osm_status": "在线 Overpass 查询返回 HTTP 406；已有场地数据没有林地或水体多边形。", "verification_status": "historical_provisional", "requested_source": "Google Earth 最新可用卫星影像（待核验日期和边界）"}, "features": [{"type": "Feature", "properties": {"kind": "forest", "class_code": 10, "source_year": 2021, "source": "ESA WorldCover 2021 v200"}, "geometry": {"type": "MultiPolygon", "coordinates": [[[[113.7025, 33.8663333333], [113.7025, 33.8664166667], [113.7025, 33.8665], [113.7025, 33.8665833333], [113.7025, 33.8666666667], [113.7025833333, 33.8666666667], [113.7025833333, 33.86675], [113.7026666667, 33.86675], [113.7026666667, 33.8668333333], [113.70275, 33.8668333333], [113.70275, 33.8669166667], [113.70275, 33.867], [113.7028333333, 33.867], [113.7028333333, 33.8670833333], [113.7029166667, 33.8670833333], [113.703, 33.8670833333], [113.7030833333, 33.8670833333], [113.7031666667, 33.8670833333], [113.70325, 33.8670833333], [113.7033333333, 33.8670833333], [113.7034166667, 33.8670833333], [113.7035, 33.8670833333], [113.7035833333, 33.8670833333], [113.7035833333, 33.8671666667], [113.7035833333, 33.86725], [113.7036666667, 33.86725], [113.7036666667, 33.8673333333], [113.7036666667, 33.8674166667], [113.7035833333, 33.8674166667], [113.7035833333, 33.8675], [113.7035, 33.8675], [113.7034166667, 33.8675], [113.7034166667, 33.8674166667], [113.7033333333, 33.8674166667], [113.70325, 33.8674166667], [113.7031666667, 33.8674166667], [113.7030833333, 33.8674166667], [113.703, 33.8674166667], [113.7029166667, 33.8674166667], [113.7029166667, 33.8675], [113.7028333333, 33.8675], [113.7028333333, 33.8675833333], [113.70275, 33.8675833333], [113.70275, 33.8676666667], [113.7026666667, 33.8676666667], [113.7025833333, 33.8676666667], [113.7025, 33.8676666667], [113.7025, 33.86775], [113.7025, 33.8678333333], [113.7025, 33.8679166667], [113.7025, 33.868], [113.7025833333, 33.868], [113.7026666667, 33.868], [113.70275, 33.868], [113.70275, 33.8679166667], [113.70275, 33.8678333333], [113.7028333333, 33.8678333333], [113.7028333333, 33.8679166667], [113.7028333333, 33.868], [113.7029166667, 33.868], [113.703, 33.868], [113.703, 33.8680833333], [113.7030833333, 33.8680833333], [113.7031666667, 33.8680833333], [113.70325, 33.8680833333], [113.70325, 33.8681666667], [113.7033333333, 33.8681666667], [113.7033333333, 33.86825], [113.7033333333, 33.8683333333], [113.7033333333, 33.8684166667], [113.70325, 33.8684166667], [113.7031666667, 33.8684166667], [113.7031666667, 33.8685], [113.7031666667, 33.8685833333], [113.7030833333, 33.8685833333], [113.7030833333, 33.8686666667], [113.7030833333, 33.86875], [113.7031666667, 33.86875], [113.7031666667, 33.8686666667], [113.70325, 33.8686666667], [113.7033333333, 33.8686666667], [113.7034166667, 33.8686666667], [113.7035, 33.8686666667], [113.7035833333, 33.8686666667], [113.7036666667, 33.8686666667], [113.70375, 33.8686666667], [113.7038333333, 33.8686666667], [113.7038333333, 33.8685833333], [113.7039166667, 33.8685833333], [113.7039166667, 33.8685], [113.7038333333, 33.8685], [113.7038333333, 33.8684166667], [113.7038333333, 33.8683333333], [113.7039166667, 33.8683333333], [113.704, 33.8683333333], [113.7040833333, 33.8683333333], [113.7040833333, 33.86825], [113.7040833333, 33.8681666667], [113.7040833333, 33.8680833333], [113.7040833333, 33.868], [113.7040833333, 33.8679166667], [113.7041666667, 33.8679166667], [113.7041666667, 33.8678333333], [113.7041666667, 33.86775], [113.7041666667, 33.8676666667], [113.7041666667, 33.8675833333], [113.7041666667, 33.8675], [113.7041666667, 33.8674166667], [113.7041666667, 33.8673333333], [113.7041666667, 33.86725], [113.7041666667, 33.8671666667], [113.7041666667, 33.8670833333], [113.7041666667, 33.867], [113.7040833333, 33.867], [113.704, 33.867], [113.704, 33.8669166667], [113.704, 33.8668333333], [113.704, 33.86675], [113.7039166667, 33.86675], [113.7039166667, 33.8666666667], [113.7038333333, 33.8666666667], [113.70375, 33.8666666667], [113.70375, 33.86675], [113.7038333333, 33.86675], [113.7038333333, 33.8668333333], [113.70375, 33.8668333333], [113.7036666667, 33.8668333333], [113.7036666667, 33.86675], [113.7036666667, 33.8666666667], [113.7035833333, 33.8666666667], [113.7035, 33.8666666667], [113.7034166667, 33.8666666667], [113.7034166667, 33.8665833333], [113.7033333333, 33.8665833333], [113.70325, 33.8665833333], [113.7031666667, 33.8665833333], [113.7030833333, 33.8665833333], [113.703, 33.8665833333], [113.703, 33.8665], [113.703, 33.8664166667], [113.7030833333, 33.8664166667], [113.7030833333, 33.8663333333], [113.703, 33.8663333333], [113.703, 33.86625], [113.7029166667, 33.86625], [113.7029166667, 33.8661666667], [113.7028333333, 33.8661666667], [113.70275, 33.8661666667], [113.7026666667, 33.8661666667], [113.7025833333, 33.8661666667], [113.7025, 33.8661666667], [113.7025, 33.86625], [113.7025, 33.8663333333]], [[113.7031666667, 33.867], [113.7031666667, 33.8669166667], [113.7031666667, 33.8668333333], [113.7031666667, 33.86675], [113.70325, 33.86675], [113.7033333333, 33.86675], [113.7034166667, 33.86675], [113.7034166667, 33.8668333333], [113.7035, 33.8668333333], [113.7035, 33.8669166667], [113.7034166667, 33.8669166667], [113.7033333333, 33.8669166667], [113.7033333333, 33.867], [113.70325, 33.867], [113.7031666667, 33.867]]], [[[113.70325, 33.86725], [113.7031666667, 33.86725], [113.7031666667, 33.8673333333], [113.70325, 33.8673333333], [113.70325, 33.86725]]], [[[113.7039166667, 33.8634166667], [113.7038333333, 33.8634166667], [113.7038333333, 33.8635], [113.7038333333, 33.8635833333], [113.7038333333, 33.8636666667], [113.7038333333, 33.86375], [113.7038333333, 33.8638333333], [113.7039166667, 33.8638333333], [113.7039166667, 33.86375], [113.704, 33.86375], [113.704, 33.8636666667], [113.704, 33.8635833333], [113.704, 33.8635], [113.7040833333, 33.8635], [113.7040833333, 33.8634166667], [113.7041666667, 33.8634166667], [113.7041666667, 33.8635], [113.70425, 33.8635], [113.7043333333, 33.8635], [113.7043333333, 33.8634166667], [113.7043333333, 33.8633333333], [113.70425, 33.8633333333], [113.70425, 33.86325], [113.7041666667, 33.86325], [113.7041666667, 33.8631666667], [113.7040833333, 33.8631666667], [113.704, 33.8631666667], [113.704, 33.86325], [113.7039166667, 33.86325], [113.7039166667, 33.8633333333], [113.7039166667, 33.8634166667]]], [[[113.7039166667, 33.8654166667], [113.7039166667, 33.8653333333], [113.7038333333, 33.8653333333], [113.7038333333, 33.8654166667], [113.7039166667, 33.8654166667]]], [[[113.7039166667, 33.8655833333], [113.7039166667, 33.8655], [113.7038333333, 33.8655], [113.7038333333, 33.8655833333], [113.7039166667, 33.8655833333]]], [[[113.70475, 33.8628333333], [113.70475, 33.8629166667], [113.70475, 33.863], [113.70475, 33.8630833333], [113.7048333333, 33.8630833333], [113.7048333333, 33.863], [113.7048333333, 33.8629166667], [113.7048333333, 33.8628333333], [113.7048333333, 33.86275], [113.7049166667, 33.86275], [113.705, 33.86275], [113.705, 33.8626666667], [113.705, 33.8625833333], [113.7049166667, 33.8625833333], [113.7048333333, 33.8625833333], [113.70475, 33.8625833333], [113.70475, 33.8626666667], [113.7046666667, 33.8626666667], [113.7046666667, 33.86275], [113.7046666667, 33.8628333333], [113.70475, 33.8628333333]]], [[[113.7045, 33.86375], [113.7044166667, 33.86375], [113.7044166667, 33.8638333333], [113.7044166667, 33.8639166667], [113.7045, 33.8639166667], [113.7045, 33.864], [113.7045, 33.8640833333], [113.7045833333, 33.8640833333], [113.7045833333, 33.8641666667], [113.7046666667, 33.8641666667], [113.70475, 33.8641666667], [113.70475, 33.8640833333], [113.7048333333, 33.8640833333], [113.7049166667, 33.8640833333], [113.7049166667, 33.8641666667], [113.705, 33.8641666667], [113.7050833333, 33.8641666667], [113.7051666667, 33.8641666667], [113.70525, 33.8641666667], [113.7053333333, 33.8641666667], [113.7054166667, 33.8641666667], [113.7054166667, 33.8640833333], [113.7053333333, 33.8640833333], [113.7053333333, 33.864], [113.70525, 33.864], [113.70525, 33.8639166667], [113.7051666667, 33.8639166667], [113.7051666667, 33.8638333333], [113.7050833333, 33.8638333333], [113.705, 33.8638333333], [113.7049166667, 33.8638333333], [113.7049166667, 33.86375], [113.7048333333, 33.86375], [113.70475, 33.86375], [113.7046666667, 33.86375], [113.7045833333, 33.86375], [113.7045, 33.86375]]], [[[113.705, 33.8649166667], [113.7050833333, 33.8649166667], [113.7051666667, 33.8649166667], [113.70525, 33.8649166667], [113.70525, 33.8648333333], [113.70525, 33.86475], [113.7051666667, 33.86475], [113.7051666667, 33.8646666667], [113.7050833333, 33.8646666667], [113.705, 33.8646666667], [113.7049166667, 33.8646666667], [113.7048333333, 33.8646666667], [113.7048333333, 33.86475], [113.7049166667, 33.86475], [113.7049166667, 33.8648333333], [113.7049166667, 33.8649166667], [113.7049166667, 33.865], [113.705, 33.865], [113.705, 33.8649166667]], [[113.7050833333, 33.86475], [113.7050833333, 33.8648333333], [113.705, 33.8648333333], [113.705, 33.86475], [113.7050833333, 33.86475]]], [[[113.7045, 33.8654166667], [113.7045, 33.8653333333], [113.7045, 33.86525], [113.7045833333, 33.86525], [113.7045833333, 33.8651666667], [113.7046666667, 33.8651666667], [113.7046666667, 33.8650833333], [113.7045833333, 33.8650833333], [113.7045833333, 33.865], [113.7045, 33.865], [113.7045, 33.8650833333], [113.7045, 33.8651666667], [113.7044166667, 33.8651666667], [113.7044166667, 33.86525], [113.7044166667, 33.8653333333], [113.7044166667, 33.8654166667], [113.7044166667, 33.8655], [113.7045, 33.8655], [113.7045, 33.8654166667]]], [[[113.7046666667, 33.8655833333], [113.7046666667, 33.8655], [113.7045833333, 33.8655], [113.7045833333, 33.8655833333], [113.7046666667, 33.8655833333]]], [[[113.70475, 33.8655833333], [113.7046666667, 33.8655833333], [113.7046666667, 33.8656666667], [113.7046666667, 33.86575], [113.70475, 33.86575], [113.70475, 33.8658333333], [113.7048333333, 33.8658333333], [113.7048333333, 33.86575], [113.7048333333, 33.8656666667], [113.70475, 33.8656666667], [113.70475, 33.8655833333]]], [[[113.7050833333, 33.8659166667], [113.7050833333, 33.8658333333], [113.705, 33.8658333333], [113.7049166667, 33.8658333333], [113.7048333333, 33.8658333333], [113.7048333333, 33.8659166667], [113.7049166667, 33.8659166667], [113.705, 33.8659166667], [113.7050833333, 33.8659166667]]], [[[113.70525, 33.8660833333], [113.7053333333, 33.8660833333], [113.7053333333, 33.8661666667], [113.7054166667, 33.8661666667], [113.7054166667, 33.8660833333], [113.7055, 33.8660833333], [113.7055, 33.866], [113.7055833333, 33.866], [113.7056666667, 33.866], [113.7056666667, 33.8660833333], [113.70575, 33.8660833333], [113.70575, 33.8661666667], [113.70575, 33.86625], [113.70575, 33.8663333333], [113.70575, 33.8664166667], [113.70575, 33.8665], [113.7056666667, 33.8665], [113.7055833333, 33.8665], [113.7055833333, 33.8665833333], [113.7056666667, 33.8665833333], [113.7056666667, 33.8666666667], [113.7056666667, 33.86675], [113.7056666667, 33.8668333333], [113.7056666667, 33.8669166667], [113.7056666667, 33.867], [113.7055833333, 33.867], [113.7055, 33.867], [113.7055, 33.8670833333], [113.7054166667, 33.8670833333], [113.7054166667, 33.8671666667], [113.7054166667, 33.86725], [113.7055, 33.86725], [113.7055833333, 33.86725], [113.7055833333, 33.8673333333], [113.7056666667, 33.8673333333], [113.7056666667, 33.8674166667], [113.7056666667, 33.8675], [113.7056666667, 33.8675833333], [113.70575, 33.8675833333], [113.7058333333, 33.8675833333], [113.7058333333, 33.8675], [113.7058333333, 33.8674166667], [113.7058333333, 33.8673333333], [113.7058333333, 33.86725], [113.7058333333, 33.8671666667], [113.7058333333, 33.8670833333], [113.7058333333, 33.867], [113.7058333333, 33.8669166667], [113.7059166667, 33.8669166667], [113.7059166667, 33.8668333333], [113.7059166667, 33.86675], [113.7059166667, 33.8666666667], [113.7059166667, 33.8665833333], [113.7059166667, 33.8665], [113.7059166667, 33.8664166667], [113.7059166667, 33.8663333333], [113.706, 33.8663333333], [113.7060833333, 33.8663333333], [113.7060833333, 33.86625], [113.7060833333, 33.8661666667], [113.706, 33.8661666667], [113.7059166667, 33.8661666667], [113.7059166667, 33.8660833333], [113.7059166667, 33.866], [113.706, 33.866], [113.706, 33.8659166667], [113.706, 33.8658333333], [113.706, 33.86575], [113.706, 33.8656666667], [113.7059166667, 33.8656666667], [113.7059166667, 33.8655833333], [113.7059166667, 33.8655], [113.706, 33.8655], [113.706, 33.8654166667], [113.706, 33.8653333333], [113.7059166667, 33.8653333333], [113.7059166667, 33.86525], [113.7058333333, 33.86525], [113.7058333333, 33.8653333333], [113.7058333333, 33.8654166667], [113.70575, 33.8654166667], [113.7056666667, 33.8654166667], [113.7055833333, 33.8654166667], [113.7055833333, 33.8655], [113.7055, 33.8655], [113.7055, 33.8655833333], [113.7055833333, 33.8655833333], [113.7055833333, 33.8656666667], [113.7055833333, 33.86575], [113.7055833333, 33.8658333333], [113.7055833333, 33.8659166667], [113.7055, 33.8659166667], [113.7054166667, 33.8659166667], [113.7053333333, 33.8659166667], [113.70525, 33.8659166667], [113.7051666667, 33.8659166667], [113.7050833333, 33.8659166667], [113.7050833333, 33.866], [113.7051666667, 33.866], [113.7051666667, 33.8660833333], [113.70525, 33.8660833333]], [[113.7056666667, 33.8655833333], [113.7056666667, 33.8655], [113.70575, 33.8655], [113.70575, 33.8655833333], [113.7058333333, 33.8655833333], [113.7058333333, 33.8656666667], [113.70575, 33.8656666667], [113.7056666667, 33.8656666667], [113.7056666667, 33.8655833333]]], [[[113.705, 33.86775], [113.7049166667, 33.86775], [113.7048333333, 33.86775], [113.7048333333, 33.8678333333], [113.70475, 33.8678333333], [113.70475, 33.8679166667], [113.7048333333, 33.8679166667], [113.7049166667, 33.8679166667], [113.705, 33.8679166667], [113.705, 33.868], [113.705, 33.8680833333], [113.7050833333, 33.8680833333], [113.7050833333, 33.8681666667], [113.7051666667, 33.8681666667], [113.70525, 33.8681666667], [113.7053333333, 33.8681666667], [113.7054166667, 33.8681666667], [113.7054166667, 33.8680833333], [113.7054166667, 33.868], [113.7054166667, 33.8679166667], [113.7055, 33.8679166667], [113.7055833333, 33.8679166667], [113.7055833333, 33.8678333333], [113.7055, 33.8678333333], [113.7055, 33.86775], [113.7054166667, 33.86775], [113.7054166667, 33.8676666667], [113.7053333333, 33.8676666667], [113.7053333333, 33.8675833333], [113.7053333333, 33.8675], [113.70525, 33.8675], [113.7051666667, 33.8675], [113.7050833333, 33.8675], [113.7050833333, 33.8675833333], [113.7050833333, 33.8676666667], [113.705, 33.8676666667], [113.705, 33.86775]]], [[[113.70475, 33.868], [113.70475, 33.8679166667], [113.7046666667, 33.8679166667], [113.7046666667, 33.868], [113.7046666667, 33.8680833333], [113.70475, 33.8680833333], [113.7048333333, 33.8680833333], [113.7048333333, 33.868], [113.70475, 33.868]]], [[[113.7053333333, 33.8614166667], [113.7053333333, 33.8613333333], [113.70525, 33.8613333333], [113.70525, 33.8614166667], [113.7053333333, 33.8614166667]]], [[[113.7056666667, 33.8625833333], [113.7056666667, 33.8626666667], [113.70575, 33.8626666667], [113.70575, 33.86275], [113.7058333333, 33.86275], [113.7059166667, 33.86275], [113.706, 33.86275], [113.7060833333, 33.86275], [113.7061666667, 33.86275], [113.70625, 33.86275], [113.7063333333, 33.86275], [113.7063333333, 33.8626666667], [113.7064166667, 33.8626666667], [113.7064166667, 33.86275], [113.7065, 33.86275], [113.7065833333, 33.86275], [113.7066666667, 33.86275], [113.70675, 33.86275], [113.7068333333, 33.86275], [113.7068333333, 33.8626666667], [113.7069166667, 33.8626666667], [113.7069166667, 33.8625833333], [113.7069166667, 33.8625], [113.7069166667, 33.8624166667], [113.7068333333, 33.8624166667], [113.7068333333, 33.8623333333], [113.70675, 33.8623333333], [113.70675, 33.86225], [113.7066666667, 33.86225], [113.7066666667, 33.8621666667], [113.7065833333, 33.8621666667], [113.7065833333, 33.86225], [113.7065, 33.86225], [113.7064166667, 33.86225], [113.7063333333, 33.86225], [113.70625, 33.86225], [113.7061666667, 33.86225], [113.7060833333, 33.86225], [113.706, 33.86225], [113.706, 33.8623333333], [113.7059166667, 33.8623333333], [113.7058333333, 33.8623333333], [113.7058333333, 33.8624166667], [113.70575, 33.8624166667], [113.70575, 33.8625], [113.7056666667, 33.8625], [113.7055833333, 33.8625], [113.7055833333, 33.8625833333], [113.7056666667, 33.8625833333]]], [[[113.7055833333, 33.8633333333], [113.7055833333, 33.86325], [113.7055, 33.86325], [113.7055, 33.8633333333], [113.7055, 33.8634166667], [113.7055833333, 33.8634166667], [113.7056666667, 33.8634166667], [113.70575, 33.8634166667], [113.7058333333, 33.8634166667], [113.7058333333, 33.8633333333], [113.70575, 33.8633333333], [113.7056666667, 33.8633333333], [113.7055833333, 33.8633333333]]], [[[113.7059166667, 33.8638333333], [113.7059166667, 33.86375], [113.7058333333, 33.86375], [113.7058333333, 33.8638333333], [113.7059166667, 33.8638333333]]], [[[113.706, 33.8639166667], [113.7060833333, 33.8639166667], [113.7060833333, 33.8638333333], [113.706, 33.8638333333], [113.7059166667, 33.8638333333], [113.7059166667, 33.8639166667], [113.706, 33.8639166667]]], [[[113.7055, 33.8650833333], [113.7055833333, 33.8650833333], [113.7056666667, 33.8650833333], [113.7056666667, 33.865], [113.7056666667, 33.8649166667], [113.7055833333, 33.8649166667], [113.7055, 33.8649166667], [113.7054166667, 33.8649166667], [113.7053333333, 33.8649166667], [113.7053333333, 33.865], [113.7054166667, 33.865], [113.7054166667, 33.8650833333], [113.7055, 33.8650833333]]], [[[113.7065833333, 33.8611666667], [113.7065833333, 33.86125], [113.7066666667, 33.86125], [113.7066666667, 33.8613333333], [113.7066666667, 33.8614166667], [113.70675, 33.8614166667], [113.7068333333, 33.8614166667], [113.7069166667, 33.8614166667], [113.707, 33.8614166667], [113.707, 33.8613333333], [113.707, 33.86125], [113.707, 33.8611666667], [113.707, 33.8610833333], [113.7070833333, 33.8610833333], [113.7070833333, 33.861], [113.707, 33.861], [113.707, 33.8609166667], [113.7069166667, 33.8609166667], [113.7068333333, 33.8609166667], [113.7068333333, 33.8608333333], [113.70675, 33.8608333333], [113.7066666667, 33.8608333333], [113.7065833333, 33.8608333333], [113.7065, 33.8608333333], [113.7065, 33.8609166667], [113.7065, 33.861], [113.7065, 33.8610833333], [113.7065, 33.8611666667], [113.7065833333, 33.8611666667]]], [[[113.7066666667, 33.8621666667], [113.70675, 33.8621666667], [113.7068333333, 33.8621666667], [113.7069166667, 33.8621666667], [113.7069166667, 33.8620833333], [113.707, 33.8620833333], [113.7070833333, 33.8620833333], [113.7070833333, 33.862], [113.7070833333, 33.8619166667], [113.707, 33.8619166667], [113.707, 33.8618333333], [113.7069166667, 33.8618333333], [113.7068333333, 33.8618333333], [113.70675, 33.8618333333], [113.70675, 33.8619166667], [113.70675, 33.862], [113.7066666667, 33.862], [113.7066666667, 33.8620833333], [113.7066666667, 33.8621666667]]], [[[113.7061666667, 33.864], [113.70625, 33.864], [113.70625, 33.8639166667], [113.7061666667, 33.8639166667], [113.7060833333, 33.8639166667], [113.7060833333, 33.864], [113.7061666667, 33.864]]], [[[113.7068333333, 33.8685833333], [113.7069166667, 33.8685833333], [113.7069166667, 33.8686666667], [113.7068333333, 33.8686666667], [113.70675, 33.8686666667], [113.7066666667, 33.8686666667], [113.7066666667, 33.86875], [113.7065833333, 33.86875], [113.7065833333, 33.8688333333], [113.7065833333, 33.8689166667], [113.7065833333, 33.869], [113.7065833333, 33.8690833333], [113.7066666667, 33.8690833333], [113.70675, 33.8690833333], [113.7068333333, 33.8690833333], [113.7069166667, 33.8690833333], [113.7069166667, 33.8691666667], [113.707, 33.8691666667], [113.7070833333, 33.8691666667], [113.7071666667, 33.8691666667], [113.70725, 33.8691666667], [113.70725, 33.86925], [113.7073333333, 33.86925], [113.7074166667, 33.86925], [113.7075, 33.86925], [113.7075833333, 33.86925], [113.7075833333, 33.8691666667], [113.7075, 33.8691666667], [113.7075, 33.8690833333], [113.7075, 33.869], [113.7075833333, 33.869], [113.7075833333, 33.8690833333], [113.7076666667, 33.8690833333], [113.7076666667, 33.8691666667], [113.70775, 33.8691666667], [113.7078333333, 33.8691666667], [113.7078333333, 33.86925], [113.7079166667, 33.86925], [113.7079166667, 33.8693333333], [113.708, 33.8693333333], [113.708, 33.8694166667], [113.708, 33.8695], [113.708, 33.8695833333], [113.7079166667, 33.8695833333], [113.7078333333, 33.8695833333], [113.70775, 33.8695833333], [113.7076666667, 33.8695833333], [113.7076666667, 33.8696666667], [113.7075833333, 33.8696666667], [113.7075833333, 33.86975], [113.7075833333, 33.8698333333], [113.7075833333, 33.8699166667], [113.7075833333, 33.87], [113.7075833333, 33.8700833333], [113.7075833333, 33.8701666667], [113.7075833333, 33.87025], [113.7075833333, 33.8703333333], [113.7075833333, 33.8704166667], [113.7075833333, 33.8705], [113.7076666667, 33.8705], [113.70775, 33.8705], [113.7078333333, 33.8705], [113.7078333333, 33.8704166667], [113.7078333333, 33.8703333333], [113.7078333333, 33.87025], [113.7078333333, 33.8701666667], [113.7079166667, 33.8701666667], [113.708, 33.8701666667], [113.708, 33.8700833333], [113.708, 33.87], [113.7080833333, 33.87], [113.7080833333, 33.8699166667], [113.7080833333, 33.8698333333], [113.7081666667, 33.8698333333], [113.70825, 33.8698333333], [113.70825, 33.86975], [113.7081666667, 33.86975], [113.7081666667, 33.8696666667], [113.7081666667, 33.8695833333], [113.7081666667, 33.8695], [113.70825, 33.8695], [113.7083333333, 33.8695], [113.7083333333, 33.8694166667], [113.7083333333, 33.8693333333], [113.7084166667, 33.8693333333], [113.7084166667, 33.86925], [113.7083333333, 33.86925], [113.7083333333, 33.8691666667], [113.70825, 33.8691666667], [113.7081666667, 33.8691666667], [113.7080833333, 33.8691666667], [113.7080833333, 33.8690833333], [113.708, 33.8690833333], [113.708, 33.869], [113.708, 33.8689166667], [113.708, 33.8688333333], [113.708, 33.86875], [113.7079166667, 33.86875], [113.7078333333, 33.86875], [113.7078333333, 33.8686666667], [113.7078333333, 33.8685833333], [113.7078333333, 33.8685], [113.7078333333, 33.8684166667], [113.7078333333, 33.8683333333], [113.7078333333, 33.86825], [113.7078333333, 33.8681666667], [113.70775, 33.8681666667], [113.70775, 33.86825], [113.7076666667, 33.86825], [113.7075833333, 33.86825], [113.7075833333, 33.8683333333], [113.7075, 33.8683333333], [113.7075, 33.86825], [113.7075, 33.8681666667], [113.7075, 33.8680833333], [113.7074166667, 33.8680833333], [113.7073333333, 33.8680833333], [113.7073333333, 33.868], [113.70725, 33.868], [113.7071666667, 33.868], [113.7071666667, 33.8680833333], [113.7070833333, 33.8680833333], [113.7070833333, 33.8681666667], [113.7070833333, 33.86825], [113.7070833333, 33.8683333333], [113.707, 33.8683333333], [113.707, 33.8684166667], [113.707, 33.8685], [113.7069166667, 33.8685], [113.7068333333, 33.8685], [113.7068333333, 33.8685833333]]], [[[113.7076666667, 33.8615], [113.7076666667, 33.8615833333], [113.70775, 33.8615833333], [113.70775, 33.8616666667], [113.7078333333, 33.8616666667], [113.7078333333, 33.86175], [113.7079166667, 33.86175], [113.7079166667, 33.8616666667], [113.708, 33.8616666667], [113.708, 33.8615833333], [113.7079166667, 33.8615833333], [113.7078333333, 33.8615833333], [113.7078333333, 33.8615], [113.7078333333, 33.8614166667], [113.7078333333, 33.8613333333], [113.70775, 33.8613333333], [113.70775, 33.86125], [113.7076666667, 33.86125], [113.7075833333, 33.86125], [113.7075, 33.86125], [113.7074166667, 33.86125], [113.7074166667, 33.8613333333], [113.7074166667, 33.8614166667], [113.7074166667, 33.8615], [113.7074166667, 33.8615833333], [113.7074166667, 33.8616666667], [113.7073333333, 33.8616666667], [113.7073333333, 33.86175], [113.7074166667, 33.86175], [113.7074166667, 33.8618333333], [113.7073333333, 33.8618333333], [113.7073333333, 33.8619166667], [113.7073333333, 33.862], [113.7074166667, 33.862], [113.7074166667, 33.8620833333], [113.7074166667, 33.8621666667], [113.7074166667, 33.86225], [113.7074166667, 33.8623333333], [113.7074166667, 33.8624166667], [113.7074166667, 33.8625], [113.7074166667, 33.8625833333], [113.7074166667, 33.8626666667], [113.7073333333, 33.8626666667], [113.7073333333, 33.86275], [113.70725, 33.86275], [113.70725, 33.8628333333], [113.70725, 33.8629166667], [113.70725, 33.863], [113.70725, 33.8630833333], [113.70725, 33.8631666667], [113.7073333333, 33.8631666667], [113.7073333333, 33.86325], [113.7073333333, 33.8633333333], [113.7073333333, 33.8634166667], [113.7073333333, 33.8635], [113.7073333333, 33.8635833333], [113.7074166667, 33.8635833333], [113.7074166667, 33.8636666667], [113.7075, 33.8636666667], [113.7075, 33.86375], [113.7075833333, 33.86375], [113.7075833333, 33.8636666667], [113.7076666667, 33.8636666667], [113.7076666667, 33.8635833333], [113.7076666667, 33.8635], [113.7076666667, 33.8634166667], [113.70775, 33.8634166667], [113.70775, 33.8635], [113.7078333333, 33.8635], [113.7078333333, 33.8635833333], [113.7079166667, 33.8635833333], [113.7079166667, 33.8636666667], [113.7079166667, 33.86375], [113.7079166667, 33.8638333333], [113.7079166667, 33.8639166667], [113.7079166667, 33.864], [113.7078333333, 33.864], [113.7078333333, 33.8639166667], [113.70775, 33.8639166667], [113.70775, 33.8638333333], [113.7076666667, 33.8638333333], [113.7075833333, 33.8638333333], [113.7075833333, 33.8639166667], [113.7075, 33.8639166667], [113.7075, 33.864], [113.7074166667, 33.864], [113.7074166667, 33.8640833333], [113.7073333333, 33.8640833333], [113.7073333333, 33.8641666667], [113.70725, 33.8641666667], [113.70725, 33.86425], [113.7071666667, 33.86425], [113.7071666667, 33.8643333333], [113.7071666667, 33.8644166667], [113.70725, 33.8644166667], [113.70725, 33.8645], [113.7071666667, 33.8645], [113.7071666667, 33.8645833333], [113.7071666667, 33.8646666667], [113.7071666667, 33.86475], [113.70725, 33.86475], [113.7073333333, 33.86475], [113.7073333333, 33.8646666667], [113.7074166667, 33.8646666667], [113.7074166667, 33.8645833333], [113.7074166667, 33.8645], [113.7074166667, 33.8644166667], [113.7074166667, 33.8643333333], [113.7074166667, 33.86425], [113.7075, 33.86425], [113.7075, 33.8641666667], [113.7075833333, 33.8641666667], [113.7075833333, 33.86425], [113.7075833333, 33.8643333333], [113.7075833333, 33.8644166667], [113.7075833333, 33.8645], [113.7076666667, 33.8645], [113.7076666667, 33.8645833333], [113.7076666667, 33.8646666667], [113.70775, 33.8646666667], [113.70775, 33.86475], [113.7076666667, 33.86475], [113.7075833333, 33.86475], [113.7075833333, 33.8648333333], [113.7075, 33.8648333333], [113.7074166667, 33.8648333333], [113.7073333333, 33.8648333333], [113.7073333333, 33.8649166667], [113.7073333333, 33.865], [113.7073333333, 33.8650833333], [113.70725, 33.8650833333], [113.70725, 33.8651666667], [113.70725, 33.86525], [113.7073333333, 33.86525], [113.7074166667, 33.86525], [113.7075, 33.86525], [113.7075, 33.8653333333], [113.7075833333, 33.8653333333], [113.7075833333, 33.8654166667], [113.7076666667, 33.8654166667], [113.7076666667, 33.8655], [113.7076666667, 33.8655833333], [113.70775, 33.8655833333], [113.7078333333, 33.8655833333], [113.7079166667, 33.8655833333], [113.708, 33.8655833333], [113.7080833333, 33.8655833333], [113.7080833333, 33.8656666667], [113.7081666667, 33.8656666667], [113.70825, 33.8656666667], [113.7083333333, 33.8656666667], [113.7084166667, 33.8656666667], [113.7085, 33.8656666667], [113.7085833333, 33.8656666667], [113.7086666667, 33.8656666667], [113.70875, 33.8656666667], [113.7088333333, 33.8656666667], [113.7089166667, 33.8656666667], [113.7089166667, 33.8655833333], [113.709, 33.8655833333], [113.7090833333, 33.8655833333], [113.7091666667, 33.8655833333], [113.70925, 33.8655833333], [113.70925, 33.8655], [113.7093333333, 33.8655], [113.7094166667, 33.8655], [113.7095, 33.8655], [113.7095833333, 33.8655], [113.7096666667, 33.8655], [113.7096666667, 33.8654166667], [113.70975, 33.8654166667], [113.7098333333, 33.8654166667], [113.7098333333, 33.8653333333], [113.7099166667, 33.8653333333], [113.7099166667, 33.86525], [113.7098333333, 33.86525], [113.7098333333, 33.8651666667], [113.7098333333, 33.8650833333], [113.70975, 33.8650833333], [113.70975, 33.865], [113.70975, 33.8649166667], [113.70975, 33.8648333333], [113.70975, 33.86475], [113.70975, 33.8646666667], [113.70975, 33.8645833333], [113.70975, 33.8645], [113.70975, 33.8644166667], [113.70975, 33.8643333333], [113.70975, 33.86425], [113.70975, 33.8641666667], [113.70975, 33.8640833333], [113.70975, 33.864], [113.70975, 33.8639166667], [113.7098333333, 33.8639166667], [113.7098333333, 33.8638333333], [113.7098333333, 33.86375], [113.7098333333, 33.8636666667], [113.7098333333, 33.8635833333], [113.7098333333, 33.8635], [113.7098333333, 33.8634166667], [113.70975, 33.8634166667], [113.70975, 33.8633333333], [113.70975, 33.86325], [113.70975, 33.8631666667], [113.70975, 33.8630833333], [113.70975, 33.863], [113.70975, 33.8629166667], [113.70975, 33.8628333333], [113.7096666667, 33.8628333333], [113.7096666667, 33.86275], [113.7095833333, 33.86275], [113.7095833333, 33.8626666667], [113.7095833333, 33.8625833333], [113.7095, 33.8625833333], [113.7095, 33.8625], [113.7095, 33.8624166667], [113.7094166667, 33.8624166667], [113.7094166667, 33.8623333333], [113.7093333333, 33.8623333333], [113.70925, 33.8623333333], [113.7091666667, 33.8623333333], [113.7091666667, 33.86225], [113.7090833333, 33.86225], [113.709, 33.86225], [113.709, 33.8621666667], [113.7089166667, 33.8621666667], [113.7088333333, 33.8621666667], [113.7088333333, 33.8620833333], [113.70875, 33.8620833333], [113.70875, 33.862], [113.7086666667, 33.862], [113.7085833333, 33.862], [113.7085, 33.862], [113.7084166667, 33.862], [113.7084166667, 33.8619166667], [113.7083333333, 33.8619166667], [113.70825, 33.8619166667], [113.7081666667, 33.8619166667], [113.7080833333, 33.8619166667], [113.708, 33.8619166667], [113.7079166667, 33.8619166667], [113.7078333333, 33.8619166667], [113.7078333333, 33.8618333333], [113.70775, 33.8618333333], [113.7076666667, 33.8618333333], [113.7075833333, 33.8618333333], [113.7075, 33.8618333333], [113.7075, 33.86175], [113.7075, 33.8616666667], [113.7075, 33.8615833333], [113.7075, 33.8615], [113.7075833333, 33.8615], [113.7076666667, 33.8615]]], [[[113.7073333333, 33.8623333333], [113.70725, 33.8623333333], [113.70725, 33.8624166667], [113.7073333333, 33.8624166667], [113.7073333333, 33.8623333333]]], [[[113.7073333333, 33.8654166667], [113.70725, 33.8654166667], [113.70725, 33.8653333333], [113.7071666667, 33.8653333333], [113.7071666667, 33.8654166667], [113.7070833333, 33.8654166667], [113.7070833333, 33.8655], [113.7071666667, 33.8655], [113.7071666667, 33.8655833333], [113.70725, 33.8655833333], [113.70725, 33.8655], [113.7073333333, 33.8655], [113.7073333333, 33.8654166667]]], [[[113.7076666667, 33.8596666667], [113.7076666667, 33.8595833333], [113.7075833333, 33.8595833333], [113.7075833333, 33.8596666667], [113.7076666667, 33.8596666667]]], [[[113.7075833333, 33.86725], [113.7076666667, 33.86725], [113.70775, 33.86725], [113.7078333333, 33.86725], [113.7079166667, 33.86725], [113.7079166667, 33.8671666667], [113.7079166667, 33.8670833333], [113.7079166667, 33.867], [113.7079166667, 33.8669166667], [113.7079166667, 33.8668333333], [113.7079166667, 33.86675], [113.7078333333, 33.86675], [113.7078333333, 33.8666666667], [113.70775, 33.8666666667], [113.7076666667, 33.8666666667], [113.7075833333, 33.8666666667], [113.7075833333, 33.86675], [113.7075833333, 33.8668333333], [113.7075833333, 33.8669166667], [113.7075833333, 33.867], [113.7075833333, 33.8670833333], [113.7075833333, 33.8671666667], [113.7075833333, 33.86725]]], [[[113.7079166667, 33.85925], [113.7078333333, 33.85925], [113.70775, 33.85925], [113.70775, 33.8593333333], [113.7078333333, 33.8593333333], [113.7079166667, 33.8593333333], [113.7079166667, 33.85925]]], [[[113.7080833333, 33.8679166667], [113.708, 33.8679166667], [113.7079166667, 33.8679166667], [113.7079166667, 33.868], [113.708, 33.868], [113.7080833333, 33.868], [113.7080833333, 33.8679166667]]], [[[113.7084166667, 33.8676666667], [113.7084166667, 33.8675833333], [113.7083333333, 33.8675833333], [113.7083333333, 33.8676666667], [113.7084166667, 33.8676666667]]], [[[113.7085833333, 33.86925], [113.7085, 33.86925], [113.7085, 33.8693333333], [113.7085, 33.8694166667], [113.7085833333, 33.8694166667], [113.7086666667, 33.8694166667], [113.70875, 33.8694166667], [113.70875, 33.8693333333], [113.7086666667, 33.8693333333], [113.7086666667, 33.86925], [113.7085833333, 33.86925]]], [[[113.7086666667, 33.85975], [113.7086666667, 33.8598333333], [113.70875, 33.8598333333], [113.7088333333, 33.8598333333], [113.7089166667, 33.8598333333], [113.7089166667, 33.8599166667], [113.709, 33.8599166667], [113.7090833333, 33.8599166667], [113.7091666667, 33.8599166667], [113.70925, 33.8599166667], [113.70925, 33.86], [113.7093333333, 33.86], [113.7093333333, 33.8599166667], [113.7093333333, 33.8598333333], [113.7093333333, 33.85975], [113.70925, 33.85975], [113.7091666667, 33.85975], [113.7090833333, 33.85975], [113.7090833333, 33.8596666667], [113.709, 33.8596666667], [113.7089166667, 33.8596666667], [113.7088333333, 33.8596666667], [113.70875, 33.8596666667], [113.70875, 33.85975], [113.7086666667, 33.85975]]], [[[113.70925, 33.8603333333], [113.70925, 33.86025], [113.7091666667, 33.86025], [113.7091666667, 33.8603333333], [113.70925, 33.8603333333]]], [[[113.70925, 33.86775], [113.7093333333, 33.86775], [113.7093333333, 33.8678333333], [113.7093333333, 33.8679166667], [113.70925, 33.8679166667], [113.70925, 33.868], [113.7093333333, 33.868], [113.7094166667, 33.868], [113.7095, 33.868], [113.7095833333, 33.868], [113.7096666667, 33.868], [113.70975, 33.868], [113.7098333333, 33.868], [113.7099166667, 33.868], [113.71, 33.868], [113.7100833333, 33.868], [113.7101666667, 33.868], [113.71025, 33.868], [113.71025, 33.8680833333], [113.7103333333, 33.8680833333], [113.7103333333, 33.8681666667], [113.7104166667, 33.8681666667], [113.7104166667, 33.86825], [113.7105, 33.86825], [113.7105, 33.8683333333], [113.7105833333, 33.8683333333], [113.7105833333, 33.8684166667], [113.7105833333, 33.8685], [113.7105833333, 33.8685833333], [113.7105833333, 33.8686666667], [113.7106666667, 33.8686666667], [113.7106666667, 33.86875], [113.7106666667, 33.8688333333], [113.7106666667, 33.8689166667], [113.71075, 33.8689166667], [113.71075, 33.8688333333], [113.71075, 33.86875], [113.7108333333, 33.86875], [113.7109166667, 33.86875], [113.7109166667, 33.8686666667], [113.711, 33.8686666667], [113.7110833333, 33.8686666667], [113.7110833333, 33.8685833333], [113.7111666667, 33.8685833333], [113.7111666667, 33.8685], [113.7111666667, 33.8684166667], [113.71125, 33.8684166667], [113.7113333333, 33.8684166667], [113.7113333333, 33.8683333333], [113.7113333333, 33.86825], [113.71125, 33.86825], [113.71125, 33.8681666667], [113.7111666667, 33.8681666667], [113.7111666667, 33.8680833333], [113.7111666667, 33.868], [113.7110833333, 33.868], [113.711, 33.868], [113.7109166667, 33.868], [113.7108333333, 33.868], [113.71075, 33.868], [113.7106666667, 33.868], [113.7105833333, 33.868], [113.7105833333, 33.8679166667], [113.7105, 33.8679166667], [113.7104166667, 33.8679166667], [113.7103333333, 33.8679166667], [113.7103333333, 33.8678333333], [113.71025, 33.8678333333], [113.71025, 33.86775], [113.7101666667, 33.86775], [113.7101666667, 33.8676666667], [113.71025, 33.8676666667], [113.7103333333, 33.8676666667], [113.7103333333, 33.8675833333], [113.7103333333, 33.8675], [113.71025, 33.8675], [113.71025, 33.8674166667], [113.7101666667, 33.8674166667], [113.7100833333, 33.8674166667], [113.71, 33.8674166667], [113.71, 33.8675], [113.71, 33.8675833333], [113.71, 33.8676666667], [113.7099166667, 33.8676666667], [113.7098333333, 33.8676666667], [113.7098333333, 33.86775], [113.70975, 33.86775], [113.70975, 33.8678333333], [113.7096666667, 33.8678333333], [113.7095833333, 33.8678333333], [113.7095833333, 33.86775], [113.7095, 33.86775], [113.7094166667, 33.86775], [113.7094166667, 33.8676666667], [113.7093333333, 33.8676666667], [113.7093333333, 33.8675833333], [113.70925, 33.8675833333], [113.7091666667, 33.8675833333], [113.7090833333, 33.8675833333], [113.7090833333, 33.8676666667], [113.7091666667, 33.8676666667], [113.70925, 33.8676666667], [113.70925, 33.86775]]], [[[113.7093333333, 33.8674166667], [113.7093333333, 33.8673333333], [113.7093333333, 33.86725], [113.70925, 33.86725], [113.70925, 33.8673333333], [113.70925, 33.8674166667], [113.7093333333, 33.8674166667]]], [[[113.7091666667, 33.8698333333], [113.7091666667, 33.8699166667], [113.70925, 33.8699166667], [113.70925, 33.87], [113.7093333333, 33.87], [113.7094166667, 33.87], [113.7095, 33.87], [113.7095833333, 33.87], [113.7096666667, 33.87], [113.70975, 33.87], [113.7098333333, 33.87], [113.7099166667, 33.87], [113.71, 33.87], [113.7100833333, 33.87], [113.7101666667, 33.87], [113.71025, 33.87], [113.71025, 33.8699166667], [113.71025, 33.8698333333], [113.71025, 33.86975], [113.71025, 33.8696666667], [113.71025, 33.8695833333], [113.7103333333, 33.8695833333], [113.7103333333, 33.8695], [113.7103333333, 33.8694166667], [113.7103333333, 33.8693333333], [113.7104166667, 33.8693333333], [113.7105, 33.8693333333], [113.7105, 33.86925], [113.7104166667, 33.86925], [113.7104166667, 33.8691666667], [113.7103333333, 33.8691666667], [113.7103333333, 33.86925], [113.71025, 33.86925], [113.71025, 33.8693333333], [113.71025, 33.8694166667], [113.7101666667, 33.8694166667], [113.7100833333, 33.8694166667], [113.71, 33.8694166667], [113.7099166667, 33.8694166667], [113.7098333333, 33.8694166667], [113.70975, 33.8694166667], [113.7096666667, 33.8694166667], [113.7095833333, 33.8694166667], [113.7095833333, 33.8695], [113.7095833333, 33.8695833333], [113.7095833333, 33.8696666667], [113.7096666667, 33.8696666667], [113.70975, 33.8696666667], [113.70975, 33.86975], [113.7096666667, 33.86975], [113.7095833333, 33.86975], [113.7095, 33.86975], [113.7095, 33.8698333333], [113.7094166667, 33.8698333333], [113.7093333333, 33.8698333333], [113.70925, 33.8698333333], [113.7091666667, 33.8698333333]]], [[[113.7096666667, 33.8595], [113.7096666667, 33.8594166667], [113.7095833333, 33.8594166667], [113.7095833333, 33.8595], [113.7096666667, 33.8595]]], [[[113.71025, 33.8593333333], [113.71025, 33.85925], [113.7101666667, 33.85925], [113.7101666667, 33.8593333333], [113.71025, 33.8593333333]]], [[[113.71, 33.8593333333], [113.7099166667, 33.8593333333], [113.7099166667, 33.8594166667], [113.71, 33.8594166667], [113.7100833333, 33.8594166667], [113.7100833333, 33.8593333333], [113.71, 33.8593333333]]], [[[113.71025, 33.8671666667], [113.71025, 33.8670833333], [113.7101666667, 33.8670833333], [113.7101666667, 33.867], [113.7100833333, 33.867], [113.7100833333, 33.8670833333], [113.71, 33.8670833333], [113.71, 33.8671666667], [113.71, 33.86725], [113.7100833333, 33.86725], [113.7100833333, 33.8671666667], [113.7101666667, 33.8671666667], [113.71025, 33.8671666667]]], [[[113.7136666667, 33.8679166667], [113.71375, 33.8679166667], [113.7138333333, 33.8679166667], [113.7139166667, 33.8679166667], [113.7139166667, 33.8678333333], [113.7139166667, 33.86775], [113.7138333333, 33.86775], [113.71375, 33.86775], [113.71375, 33.8676666667], [113.7136666667, 33.8676666667], [113.7135833333, 33.8676666667], [113.7135833333, 33.86775], [113.7136666667, 33.86775], [113.7136666667, 33.8678333333], [113.7135833333, 33.8678333333], [113.7135833333, 33.8679166667], [113.7136666667, 33.8679166667]]]]}}, {"type": "Feature", "properties": {"kind": "water", "class_code": 80, "source_year": 2021, "source": "ESA WorldCover 2021 v200"}, "geometry": {"type": "Polygon", "coordinates": [[[113.704, 33.86125], [113.704, 33.8613333333], [113.7039166667, 33.8613333333], [113.7039166667, 33.86125], [113.704, 33.86125]]]}}]}