<?xml version="1.0" encoding="UTF-8"?><kml xmlns="http://www.opengis.net/kml/2.2"><Document><name>智信科目一、科目二区域三维地图</name><description><![CDATA[<h3>使用说明</h3><p>导入后开启 Google Earth 的地形显示。边界采用用户提供的 GNSS/WGS84 坐标。</p><p>建筑、树木、设备及判读点没有可靠高度测量，均保持贴地显示，不生成虚构三维高度。需要精细模型时应补充无人机倾斜摄影、点云或测量数据。</p><p>内置卫星影像为 Esri / Vantor / Earthstar Geographics / GIS User Community，元数据日期 2017-07-24，标称分辨率 0.5 米。</p>]]></description><Style id="boundary"><LineStyle><color>ff00ffff</color><width>4</width></LineStyle><PolyStyle><color>2600ffff</color></PolyStyle></Style><Style id="point"><IconStyle><color>ff00ffff</color><scale>0.65</scale></IconStyle><LabelStyle><color>ffffffff</color><scale>0.8</scale></LabelStyle></Style><Style id="observation"><IconStyle><color>ff55ccff</color><scale>1</scale></IconStyle></Style><Style id="road"><LineStyle><color>ff66d9ff</color><width>3</width></LineStyle></Style><Style id="power"><LineStyle><color>ff5577ff</color><width>4</width></LineStyle></Style><Style id="elevation"><IconStyle><color>ff40c0ff</color><scale>0.45</scale></IconStyle><LabelStyle><scale>0</scale></LabelStyle></Style><open>1</open><LookAt><longitude>113.709023</longitude><latitude>33.864222</latitude><altitude>0</altitude><heading>0</heading><tilt>45</tilt><range>1700</range><altitudeMode>clampToGround</altitudeMode></LookAt><Folder><name>一、竞赛边界（WGS84）</name><open>1</open><Placemark><name>科目一、科目二区域边界</name><description><![CDATA[<h3>竞赛边界</h3><p>25 个 GNSS/WGS84 边界点；水平面积约 51.23 公顷，周长约 4.104 千米。</p>]]></description><styleUrl>#boundary</styleUrl><Polygon><tessellate>1</tessellate><altitudeMode>clampToGround</altitudeMode><outerBoundaryIs><LinearRing><coordinates>113.70741944,33.86434444,0 113.70589722,33.86421944,0 113.70581944,33.86480556,0 113.70532222,33.86476944,0 113.70540000,33.86416667,0 113.70383333,33.86402500,0 113.70373889,33.86281389,0 113.70356667,33.86095000,0 113.70715000,33.86063056,0 113.70729167,33.86243611,0 113.70743333,33.86241389,0 113.70861111,33.86235556,0 113.70856944,33.86194167,0 113.70981111,33.86190556,0 113.70973333,33.86041944,0 113.71243611,33.86027500,0 113.71254722,33.86180278,0 113.71280833,33.86550000,0 113.71296944,33.86764722,0 113.71015833,33.86756389,0 113.71019722,33.86801667,0 113.71010556,33.86950556,0 113.70786944,33.86926111,0 113.70770556,33.86573056,0 113.70757500,33.86436667,0 113.70741944,33.86434444,0</coordinates></LinearRing></outerBoundaryIs></Polygon></Placemark><Placemark><name>P1</name><description><![CDATA[<h3>P1</h3>WGS84 坐标：113.70741944°E，33.86434444°N<br>原始边界点序号：1]]></description><styleUrl>#point</styleUrl><Point><altitudeMode>clampToGround</altitudeMode><coordinates>113.70741944,33.86434444,0</coordinates></Point></Placemark><Placemark><name>P2</name><description><![CDATA[<h3>P2</h3>WGS84 坐标：113.70589722°E，33.86421944°N<br>原始边界点序号：2]]></description><styleUrl>#point</styleUrl><Point><altitudeMode>clampToGround</altitudeMode><coordinates>113.70589722,33.86421944,0</coordinates></Point></Placemark><Placemark><name>P3</name><description><![CDATA[<h3>P3</h3>WGS84 坐标：113.70581944°E，33.86480556°N<br>原始边界点序号：3]]></description><styleUrl>#point</styleUrl><Point><altitudeMode>clampToGround</altitudeMode><coordinates>113.70581944,33.86480556,0</coordinates></Point></Placemark><Placemark><name>P4</name><description><![CDATA[<h3>P4</h3>WGS84 坐标：113.70532222°E，33.86476944°N<br>原始边界点序号：4]]></description><styleUrl>#point</styleUrl><Point><altitudeMode>clampToGround</altitudeMode><coordinates>113.70532222,33.86476944,0</coordinates></Point></Placemark><Placemark><name>P5</name><description><![CDATA[<h3>P5</h3>WGS84 坐标：113.70540000°E，33.86416667°N<br>原始边界点序号：5]]></description><styleUrl>#point</styleUrl><Point><altitudeMode>clampToGround</altitudeMode><coordinates>113.70540000,33.86416667,0</coordinates></Point></Placemark><Placemark><name>P6</name><description><![CDATA[<h3>P6</h3>WGS84 坐标：113.70383333°E，33.86402500°N<br>原始边界点序号：6]]></description><styleUrl>#point</styleUrl><Point><altitudeMode>clampToGround</altitudeMode><coordinates>113.70383333,33.86402500,0</coordinates></Point></Placemark><Placemark><name>P7</name><description><![CDATA[<h3>P7</h3>WGS84 坐标：113.70373889°E，33.86281389°N<br>原始边界点序号：7]]></description><styleUrl>#point</styleUrl><Point><altitudeMode>clampToGround</altitudeMode><coordinates>113.70373889,33.86281389,0</coordinates></Point></Placemark><Placemark><name>P8</name><description><![CDATA[<h3>P8</h3>WGS84 坐标：113.70356667°E，33.86095000°N<br>原始边界点序号：8]]></description><styleUrl>#point</styleUrl><Point><altitudeMode>clampToGround</altitudeMode><coordinates>113.70356667,33.86095000,0</coordinates></Point></Placemark><Placemark><name>P9</name><description><![CDATA[<h3>P9</h3>WGS84 坐标：113.70715000°E，33.86063056°N<br>原始边界点序号：9]]></description><styleUrl>#point</styleUrl><Point><altitudeMode>clampToGround</altitudeMode><coordinates>113.70715000,33.86063056,0</coordinates></Point></Placemark><Placemark><name>P10</name><description><![CDATA[<h3>P10</h3>WGS84 坐标：113.70729167°E，33.86243611°N<br>原始边界点序号：10]]></description><styleUrl>#point</styleUrl><Point><altitudeMode>clampToGround</altitudeMode><coordinates>113.70729167,33.86243611,0</coordinates></Point></Placemark><Placemark><name>P11</name><description><![CDATA[<h3>P11</h3>WGS84 坐标：113.70743333°E，33.86241389°N<br>原始边界点序号：11]]></description><styleUrl>#point</styleUrl><Point><altitudeMode>clampToGround</altitudeMode><coordinates>113.70743333,33.86241389,0</coordinates></Point></Placemark><Placemark><name>P12</name><description><![CDATA[<h3>P12</h3>WGS84 坐标：113.70861111°E，33.86235556°N<br>原始边界点序号：12]]></description><styleUrl>#point</styleUrl><Point><altitudeMode>clampToGround</altitudeMode><coordinates>113.70861111,33.86235556,0</coordinates></Point></Placemark><Placemark><name>P13</name><description><![CDATA[<h3>P13</h3>WGS84 坐标：113.70856944°E，33.86194167°N<br>原始边界点序号：13]]></description><styleUrl>#point</styleUrl><Point><altitudeMode>clampToGround</altitudeMode><coordinates>113.70856944,33.86194167,0</coordinates></Point></Placemark><Placemark><name>P14</name><description><![CDATA[<h3>P14</h3>WGS84 坐标：113.70981111°E，33.86190556°N<br>原始边界点序号：14]]></description><styleUrl>#point</styleUrl><Point><altitudeMode>clampToGround</altitudeMode><coordinates>113.70981111,33.86190556,0</coordinates></Point></Placemark><Placemark><name>P15</name><description><![CDATA[<h3>P15</h3>WGS84 坐标：113.70973333°E，33.86041944°N<br>原始边界点序号：15]]></description><styleUrl>#point</styleUrl><Point><altitudeMode>clampToGround</altitudeMode><coordinates>113.70973333,33.86041944,0</coordinates></Point></Placemark><Placemark><name>P16</name><description><![CDATA[<h3>P16</h3>WGS84 坐标：113.71243611°E，33.86027500°N<br>原始边界点序号：16]]></description><styleUrl>#point</styleUrl><Point><altitudeMode>clampToGround</altitudeMode><coordinates>113.71243611,33.86027500,0</coordinates></Point></Placemark><Placemark><name>P17</name><description><![CDATA[<h3>P17</h3>WGS84 坐标：113.71254722°E，33.86180278°N<br>原始边界点序号：17]]></description><styleUrl>#point</styleUrl><Point><altitudeMode>clampToGround</altitudeMode><coordinates>113.71254722,33.86180278,0</coordinates></Point></Placemark><Placemark><name>P18</name><description><![CDATA[<h3>P18</h3>WGS84 坐标：113.71280833°E，33.86550000°N<br>原始边界点序号：18]]></description><styleUrl>#point</styleUrl><Point><altitudeMode>clampToGround</altitudeMode><coordinates>113.71280833,33.86550000,0</coordinates></Point></Placemark><Placemark><name>P19</name><description><![CDATA[<h3>P19</h3>WGS84 坐标：113.71296944°E，33.86764722°N<br>原始边界点序号：19]]></description><styleUrl>#point</styleUrl><Point><altitudeMode>clampToGround</altitudeMode><coordinates>113.71296944,33.86764722,0</coordinates></Point></Placemark><Placemark><name>P20</name><description><![CDATA[<h3>P20</h3>WGS84 坐标：113.71015833°E，33.86756389°N<br>原始边界点序号：20]]></description><styleUrl>#point</styleUrl><Point><altitudeMode>clampToGround</altitudeMode><coordinates>113.71015833,33.86756389,0</coordinates></Point></Placemark><Placemark><name>P21</name><description><![CDATA[<h3>P21</h3>WGS84 坐标：113.71019722°E，33.86801667°N<br>原始边界点序号：21]]></description><styleUrl>#point</styleUrl><Point><altitudeMode>clampToGround</altitudeMode><coordinates>113.71019722,33.86801667,0</coordinates></Point></Placemark><Placemark><name>P22</name><description><![CDATA[<h3>P22</h3>WGS84 坐标：113.71010556°E，33.86950556°N<br>原始边界点序号：22]]></description><styleUrl>#point</styleUrl><Point><altitudeMode>clampToGround</altitudeMode><coordinates>113.71010556,33.86950556,0</coordinates></Point></Placemark><Placemark><name>P23</name><description><![CDATA[<h3>P23</h3>WGS84 坐标：113.70786944°E，33.86926111°N<br>原始边界点序号：23]]></description><styleUrl>#point</styleUrl><Point><altitudeMode>clampToGround</altitudeMode><coordinates>113.70786944,33.86926111,0</coordinates></Point></Placemark><Placemark><name>P24</name><description><![CDATA[<h3>P24</h3>WGS84 坐标：113.70770556°E，33.86573056°N<br>原始边界点序号：24]]></description><styleUrl>#point</styleUrl><Point><altitudeMode>clampToGround</altitudeMode><coordinates>113.70770556,33.86573056,0</coordinates></Point></Placemark><Placemark><name>P25</name><description><![CDATA[<h3>P25</h3>WGS84 坐标：113.70757500°E，33.86436667°N<br>原始边界点序号：25]]></description><styleUrl>#point</styleUrl><Point><altitudeMode>clampToGround</altitudeMode><coordinates>113.70757500,33.86436667,0</coordinates></Point></Placemark></Folder><Folder><name>二、卫星影像判读点（非实测设备）</name><Placemark><name>A · 东侧农田与田间通道</name><description><![CDATA[<h3>A · 东侧农田与田间通道</h3>成片条带状种植纹理，田界及通道清晰，代表点位于 P19—P16 西侧。<br><b>待核实：</b>作物种类、株高、田埂落差、地表承载条件未知；细小电线不能凭此影像排除。<br><small>2017-07-24 卫星影像人工判读，未实测</small>]]></description><styleUrl>#observation</styleUrl><Point><altitudeMode>clampToGround</altitudeMode><coordinates>113.71137843,33.86420168,0</coordinates></Point></Placemark><Placemark><name>B · 中部密集树木带</name><description><![CDATA[<h3>B · 中部密集树木带</h3>可见连续树冠及规则栽植纹理，呈南北向长条分布。<br><b>待核实：</b>树种、树高和当前范围未知；不能把该带视为无障碍空地。<br><small>2017-07-24 卫星影像人工判读，未实测</small>]]></description><styleUrl>#observation</styleUrl><Point><altitudeMode>clampToGround</altitudeMode><coordinates>113.70889013,33.86377122,0</coordinates></Point></Placemark><Placemark><name>C · 北侧浅色场地与矩形构筑物</name><description><![CDATA[<h3>C · 北侧浅色场地与矩形构筑物</h3>P22—P23 南侧为大块浅色地表，中部可见矩形设施及其投影。<br><b>待核实：</b>用途无法确认；是否存在围栏、桩柱、活动设备及其高度需现场查证。<br><small>2017-07-24 卫星影像人工判读，未实测</small>]]></description><styleUrl>#observation</styleUrl><Point><altitudeMode>clampToGround</altitudeMode><coordinates>113.70899381,33.86863525,0</coordinates></Point></Placemark><Placemark><name>D · 北部规则分格地块</name><description><![CDATA[<h3>D · 北部规则分格地块</h3>主通道东侧可见规则小方格、条形设施和少量蓝色屋面。<br><b>待核实：</b>可能为种植或试验性地块，具体用途未确认；不作比赛设备命名。<br><small>2017-07-24 卫星影像人工判读，未实测</small>]]></description><styleUrl>#observation</styleUrl><Point><altitudeMode>clampToGround</altitudeMode><coordinates>113.70899381,33.86631088,0</coordinates></Point></Placemark><Placemark><name>E · 北部深色矩形池状地物</name><description><![CDATA[<h3>E · 北部深色矩形池状地物</h3>规则矩形深色面，边缘较直，邻近条状设施；影像上疑似池塘或水池。<br><b>待核实：</b>水深、池壁高度、是否蓄水及用途均未知；需确认是否为真实水面。<br><small>2017-07-24 卫星影像人工判读，未实测</small>]]></description><styleUrl>#observation</styleUrl><Point><altitudeMode>clampToGround</altitudeMode><coordinates>113.70873461,33.86719760,0</coordinates></Point></Placemark><Placemark><name>F · 西南侧建筑与硬化通道</name><description><![CDATA[<h3>F · 西南侧建筑与硬化通道</h3>P6—P10 内侧可见小型屋面、成片绿化及规则或弯曲通道。<br><b>待核实：</b>建筑用途、屋面高度、围栏和开放状态未知；不能据影像判定起降条件。<br><small>2017-07-24 卫星影像人工判读，未实测</small>]]></description><styleUrl>#observation</styleUrl><Point><altitudeMode>clampToGround</altitudeMode><coordinates>113.70598711,33.86291030,0</coordinates></Point></Placemark><Placemark><name>G · 西南侧池塘与混合地表</name><description><![CDATA[<h3>G · 西南侧池塘与混合地表</h3>P8 东北侧可见深色不规则池状地物，周围为裸地、低矮植被及小路。<br><b>待核实：</b>水位、岸线软硬、排水能力及季节变化未知。<br><small>2017-07-24 卫星影像人工判读，未实测</small>]]></description><styleUrl>#observation</styleUrl><Point><altitudeMode>clampToGround</altitudeMode><coordinates>113.70396537,33.86144672,0</coordinates></Point></Placemark><Placemark><name>H · 西北侧椭圆跑道状场地（区域外）</name><description><![CDATA[<h3>H · 西北侧椭圆跑道状场地（区域外）</h3>P23 西南方向的边界外可见椭圆环形道及内部场地。<br><b>待核实：</b>仅作周边参照，不纳入本次竞赛边界；不能由外形确认机构或场地名称。<br><small>2017-07-24 卫星影像人工判读，未实测</small>]]></description><styleUrl>#observation</styleUrl><Point><altitudeMode>clampToGround</altitudeMode><coordinates>113.70619447,33.86839421,0</coordinates></Point></Placemark></Folder><Folder><name>三、公开地图道路与电力记录</name><Placemark><name>输电杆塔（区域外）</name><description><![CDATA[<h3>输电杆塔（区域外）</h3>区域外；距边界约 349 米<br>OSM 标签：power=tower<br><a href="https://www.openstreetmap.org/node/7380756797">打开原始记录</a>]]></description><styleUrl>#power</styleUrl><Point><altitudeMode>clampToGround</altitudeMode><coordinates>113.71580240,33.85885870,0</coordinates></Point></Placemark><Placemark><name>110 kV 架空输电线路（区域外）（线段 1）</name><description><![CDATA[<h3>110 kV 架空输电线路（区域外）（线段 1）</h3>区域外；距边界约 337 米<br>OSM 标签：cables=3；frequency=50；power=line；voltage=110000<br><a href="https://www.openstreetmap.org/way/787547249">打开原始记录</a>]]></description><styleUrl>#power</styleUrl><LineString><tessellate>1</tessellate><altitudeMode>clampToGround</altitudeMode><coordinates>113.71759919,33.86048924,0 113.71728030,33.86020170,0</coordinates></LineString></Placemark><Placemark><name>110 kV 架空输电线路（区域外）（线段 2）</name><description><![CDATA[<h3>110 kV 架空输电线路（区域外）（线段 2）</h3>区域外；距边界约 337 米<br>OSM 标签：cables=3；frequency=50；power=line；voltage=110000<br><a href="https://www.openstreetmap.org/way/787547249">打开原始记录</a>]]></description><styleUrl>#power</styleUrl><LineString><tessellate>1</tessellate><altitudeMode>clampToGround</altitudeMode><coordinates>113.71728030,33.86020170,0 113.71580240,33.85885870,0</coordinates></LineString></Placemark><Placemark><name>110 kV 架空输电线路（区域外）（线段 3）</name><description><![CDATA[<h3>110 kV 架空输电线路（区域外）（线段 3）</h3>区域外；距边界约 337 米<br>OSM 标签：cables=3；frequency=50；power=line；voltage=110000<br><a href="https://www.openstreetmap.org/way/787547249">打开原始记录</a>]]></description><styleUrl>#power</styleUrl><LineString><tessellate>1</tessellate><altitudeMode>clampToGround</altitudeMode><coordinates>113.71580240,33.85885870,0 113.71413950,33.85731290,0</coordinates></LineString></Placemark><Placemark><name>110 kV 架空输电线路（区域外）（线段 4）</name><description><![CDATA[<h3>110 kV 架空输电线路（区域外）（线段 4）</h3>区域外；距边界约 337 米<br>OSM 标签：cables=3；frequency=50；power=line；voltage=110000<br><a href="https://www.openstreetmap.org/way/787547249">打开原始记录</a>]]></description><styleUrl>#power</styleUrl><LineString><tessellate>1</tessellate><altitudeMode>clampToGround</altitudeMode><coordinates>113.71413950,33.85731290,0 113.71395891,33.85714191,0</coordinates></LineString></Placemark><Placemark><name>西北侧未命名道路（区域外）（线段 1）</name><description><![CDATA[<h3>西北侧未命名道路（区域外）（线段 1）</h3>区域外；距边界约 14 米<br>OSM 标签：highway=unclassified<br><a href="https://www.openstreetmap.org/way/867176696">打开原始记录</a>]]></description><styleUrl>#road</styleUrl><LineString><tessellate>1</tessellate><altitudeMode>clampToGround</altitudeMode><coordinates>113.69893693,33.86772275,0 113.69903880,33.86773420,0</coordinates></LineString></Placemark><Placemark><name>西北侧未命名道路（区域外）（线段 2）</name><description><![CDATA[<h3>西北侧未命名道路（区域外）（线段 2）</h3>区域外；距边界约 14 米<br>OSM 标签：highway=unclassified<br><a href="https://www.openstreetmap.org/way/867176696">打开原始记录</a>]]></description><styleUrl>#road</styleUrl><LineString><tessellate>1</tessellate><altitudeMode>clampToGround</altitudeMode><coordinates>113.69903880,33.86773420,0 113.69944650,33.86776390,0</coordinates></LineString></Placemark><Placemark><name>西北侧未命名道路（区域外）（线段 3）</name><description><![CDATA[<h3>西北侧未命名道路（区域外）（线段 3）</h3>区域外；距边界约 14 米<br>OSM 标签：highway=unclassified<br><a href="https://www.openstreetmap.org/way/867176696">打开原始记录</a>]]></description><styleUrl>#road</styleUrl><LineString><tessellate>1</tessellate><altitudeMode>clampToGround</altitudeMode><coordinates>113.69944650,33.86776390,0 113.69978630,33.86779360,0</coordinates></LineString></Placemark><Placemark><name>西北侧未命名道路（区域外）（线段 4）</name><description><![CDATA[<h3>西北侧未命名道路（区域外）（线段 4）</h3>区域外；距边界约 14 米<br>OSM 标签：highway=unclassified<br><a href="https://www.openstreetmap.org/way/867176696">打开原始记录</a>]]></description><styleUrl>#road</styleUrl><LineString><tessellate>1</tessellate><altitudeMode>clampToGround</altitudeMode><coordinates>113.69978630,33.86779360,0 113.70006520,33.86783810,0</coordinates></LineString></Placemark><Placemark><name>西北侧未命名道路（区域外）（线段 5）</name><description><![CDATA[<h3>西北侧未命名道路（区域外）（线段 5）</h3>区域外；距边界约 14 米<br>OSM 标签：highway=unclassified<br><a href="https://www.openstreetmap.org/way/867176696">打开原始记录</a>]]></description><styleUrl>#road</styleUrl><LineString><tessellate>1</tessellate><altitudeMode>clampToGround</altitudeMode><coordinates>113.70006520,33.86783810,0 113.70037280,33.86789750,0</coordinates></LineString></Placemark><Placemark><name>西北侧未命名道路（区域外）（线段 6）</name><description><![CDATA[<h3>西北侧未命名道路（区域外）（线段 6）</h3>区域外；距边界约 14 米<br>OSM 标签：highway=unclassified<br><a href="https://www.openstreetmap.org/way/867176696">打开原始记录</a>]]></description><styleUrl>#road</styleUrl><LineString><tessellate>1</tessellate><altitudeMode>clampToGround</altitudeMode><coordinates>113.70037280,33.86789750,0 113.70108800,33.86802820,0</coordinates></LineString></Placemark><Placemark><name>西北侧未命名道路（区域外）（线段 7）</name><description><![CDATA[<h3>西北侧未命名道路（区域外）（线段 7）</h3>区域外；距边界约 14 米<br>OSM 标签：highway=unclassified<br><a href="https://www.openstreetmap.org/way/867176696">打开原始记录</a>]]></description><styleUrl>#road</styleUrl><LineString><tessellate>1</tessellate><altitudeMode>clampToGround</altitudeMode><coordinates>113.70108800,33.86802820,0 113.70184260,33.86816770,0</coordinates></LineString></Placemark><Placemark><name>西北侧未命名道路（区域外）（线段 8）</name><description><![CDATA[<h3>西北侧未命名道路（区域外）（线段 8）</h3>区域外；距边界约 14 米<br>OSM 标签：highway=unclassified<br><a href="https://www.openstreetmap.org/way/867176696">打开原始记录</a>]]></description><styleUrl>#road</styleUrl><LineString><tessellate>1</tessellate><altitudeMode>clampToGround</altitudeMode><coordinates>113.70184260,33.86816770,0 113.70241120,33.86826870,0</coordinates></LineString></Placemark><Placemark><name>西北侧未命名道路（区域外）（线段 9）</name><description><![CDATA[<h3>西北侧未命名道路（区域外）（线段 9）</h3>区域外；距边界约 14 米<br>OSM 标签：highway=unclassified<br><a href="https://www.openstreetmap.org/way/867176696">打开原始记录</a>]]></description><styleUrl>#road</styleUrl><LineString><tessellate>1</tessellate><altitudeMode>clampToGround</altitudeMode><coordinates>113.70241120,33.86826870,0 113.70293700,33.86838450,0</coordinates></LineString></Placemark><Placemark><name>西北侧未命名道路（区域外）（线段 10）</name><description><![CDATA[<h3>西北侧未命名道路（区域外）（线段 10）</h3>区域外；距边界约 14 米<br>OSM 标签：highway=unclassified<br><a href="https://www.openstreetmap.org/way/867176696">打开原始记录</a>]]></description><styleUrl>#road</styleUrl><LineString><tessellate>1</tessellate><altitudeMode>clampToGround</altitudeMode><coordinates>113.70293700,33.86838450,0 113.70334460,33.86845280,0</coordinates></LineString></Placemark><Placemark><name>西北侧未命名道路（区域外）（线段 11）</name><description><![CDATA[<h3>西北侧未命名道路（区域外）（线段 11）</h3>区域外；距边界约 14 米<br>OSM 标签：highway=unclassified<br><a href="https://www.openstreetmap.org/way/867176696">打开原始记录</a>]]></description><styleUrl>#road</styleUrl><LineString><tessellate>1</tessellate><altitudeMode>clampToGround</altitudeMode><coordinates>113.70334460,33.86845280,0 113.70359860,33.86850030,0</coordinates></LineString></Placemark><Placemark><name>西北侧未命名道路（区域外）（线段 12）</name><description><![CDATA[<h3>西北侧未命名道路（区域外）（线段 12）</h3>区域外；距边界约 14 米<br>OSM 标签：highway=unclassified<br><a href="https://www.openstreetmap.org/way/867176696">打开原始记录</a>]]></description><styleUrl>#road</styleUrl><LineString><tessellate>1</tessellate><altitudeMode>clampToGround</altitudeMode><coordinates>113.70359860,33.86850030,0 113.70377380,33.86856560,0</coordinates></LineString></Placemark><Placemark><name>西北侧未命名道路（区域外）（线段 13）</name><description><![CDATA[<h3>西北侧未命名道路（区域外）（线段 13）</h3>区域外；距边界约 14 米<br>OSM 标签：highway=unclassified<br><a href="https://www.openstreetmap.org/way/867176696">打开原始记录</a>]]></description><styleUrl>#road</styleUrl><LineString><tessellate>1</tessellate><altitudeMode>clampToGround</altitudeMode><coordinates>113.70377380,33.86856560,0 113.70393470,33.86862500,0</coordinates></LineString></Placemark><Placemark><name>西北侧未命名道路（区域外）（线段 14）</name><description><![CDATA[<h3>西北侧未命名道路（区域外）（线段 14）</h3>区域外；距边界约 14 米<br>OSM 标签：highway=unclassified<br><a href="https://www.openstreetmap.org/way/867176696">打开原始记录</a>]]></description><styleUrl>#road</styleUrl><LineString><tessellate>1</tessellate><altitudeMode>clampToGround</altitudeMode><coordinates>113.70393470,33.86862500,0 113.70412070,33.86866960,0</coordinates></LineString></Placemark><Placemark><name>西北侧未命名道路（区域外）（线段 15）</name><description><![CDATA[<h3>西北侧未命名道路（区域外）（线段 15）</h3>区域外；距边界约 14 米<br>OSM 标签：highway=unclassified<br><a href="https://www.openstreetmap.org/way/867176696">打开原始记录</a>]]></description><styleUrl>#road</styleUrl><LineString><tessellate>1</tessellate><altitudeMode>clampToGround</altitudeMode><coordinates>113.70412070,33.86866960,0 113.70447830,33.86875270,0</coordinates></LineString></Placemark><Placemark><name>西北侧未命名道路（区域外）（线段 16）</name><description><![CDATA[<h3>西北侧未命名道路（区域外）（线段 16）</h3>区域外；距边界约 14 米<br>OSM 标签：highway=unclassified<br><a href="https://www.openstreetmap.org/way/867176696">打开原始记录</a>]]></description><styleUrl>#road</styleUrl><LineString><tessellate>1</tessellate><altitudeMode>clampToGround</altitudeMode><coordinates>113.70447830,33.86875270,0 113.70514350,33.86887150,0</coordinates></LineString></Placemark><Placemark><name>西北侧未命名道路（区域外）（线段 17）</name><description><![CDATA[<h3>西北侧未命名道路（区域外）（线段 17）</h3>区域外；距边界约 14 米<br>OSM 标签：highway=unclassified<br><a href="https://www.openstreetmap.org/way/867176696">打开原始记录</a>]]></description><styleUrl>#road</styleUrl><LineString><tessellate>1</tessellate><altitudeMode>clampToGround</altitudeMode><coordinates>113.70514350,33.86887150,0 113.70647390,33.86912390,0</coordinates></LineString></Placemark><Placemark><name>西北侧未命名道路（区域外）（线段 18）</name><description><![CDATA[<h3>西北侧未命名道路（区域外）（线段 18）</h3>区域外；距边界约 14 米<br>OSM 标签：highway=unclassified<br><a href="https://www.openstreetmap.org/way/867176696">打开原始记录</a>]]></description><styleUrl>#road</styleUrl><LineString><tessellate>1</tessellate><altitudeMode>clampToGround</altitudeMode><coordinates>113.70647390,33.86912390,0 113.70704610,33.86923080,0</coordinates></LineString></Placemark><Placemark><name>西北侧未命名道路（区域外）（线段 19）</name><description><![CDATA[<h3>西北侧未命名道路（区域外）（线段 19）</h3>区域外；距边界约 14 米<br>OSM 标签：highway=unclassified<br><a href="https://www.openstreetmap.org/way/867176696">打开原始记录</a>]]></description><styleUrl>#road</styleUrl><LineString><tessellate>1</tessellate><altitudeMode>clampToGround</altitudeMode><coordinates>113.70704610,33.86923080,0 113.70742160,33.86929320,0</coordinates></LineString></Placemark><Placemark><name>西北侧未命名道路（区域外）（线段 20）</name><description><![CDATA[<h3>西北侧未命名道路（区域外）（线段 20）</h3>区域外；距边界约 14 米<br>OSM 标签：highway=unclassified<br><a href="https://www.openstreetmap.org/way/867176696">打开原始记录</a>]]></description><styleUrl>#road</styleUrl><LineString><tessellate>1</tessellate><altitudeMode>clampToGround</altitudeMode><coordinates>113.70742160,33.86929320,0 113.70763620,33.86933470,0</coordinates></LineString></Placemark><Placemark><name>西北侧未命名道路（区域外）（线段 21）</name><description><![CDATA[<h3>西北侧未命名道路（区域外）（线段 21）</h3>区域外；距边界约 14 米<br>OSM 标签：highway=unclassified<br><a href="https://www.openstreetmap.org/way/867176696">打开原始记录</a>]]></description><styleUrl>#road</styleUrl><LineString><tessellate>1</tessellate><altitudeMode>clampToGround</altitudeMode><coordinates>113.70763620,33.86933470,0 113.70779350,33.86936740,0</coordinates></LineString></Placemark><Placemark><name>X010 道路中心线（线段 1）</name><description><![CDATA[<h3>X010 道路中心线（线段 1）</h3>与边界相交；线位在面内约 213 米<br>OSM 标签：highway=secondary；lanes=2；oneway=no；ref=X010<br><a href="https://www.openstreetmap.org/way/1063623380">打开原始记录</a>]]></description><styleUrl>#road</styleUrl><LineString><tessellate>1</tessellate><altitudeMode>clampToGround</altitudeMode><coordinates>113.70691631,33.85714191,0 113.70775470,33.86805660,0</coordinates></LineString></Placemark><Placemark><name>X010 道路中心线（线段 2）</name><description><![CDATA[<h3>X010 道路中心线（线段 2）</h3>与边界相交；线位在面内约 213 米<br>OSM 标签：highway=secondary；lanes=2；oneway=no；ref=X010<br><a href="https://www.openstreetmap.org/way/1063623380">打开原始记录</a>]]></description><styleUrl>#road</styleUrl><LineString><tessellate>1</tessellate><altitudeMode>clampToGround</altitudeMode><coordinates>113.70775470,33.86805660,0 113.70779350,33.86936740,0</coordinates></LineString></Placemark><Placemark><name>X010 道路中心线（线段 3）</name><description><![CDATA[<h3>X010 道路中心线（线段 3）</h3>与边界相交；线位在面内约 213 米<br>OSM 标签：highway=secondary；lanes=2；oneway=no；ref=X010<br><a href="https://www.openstreetmap.org/way/1063623380">打开原始记录</a>]]></description><styleUrl>#road</styleUrl><LineString><tessellate>1</tessellate><altitudeMode>clampToGround</altitudeMode><coordinates>113.70779350,33.86936740,0 113.70768502,33.87263819,0</coordinates></LineString></Placemark></Folder><Folder><name>四、SRTM 高程采样（贴地显示）</name><description><![CDATA[102 个区域内网格样本；高程来自 SRTM 查询，垂直基准 EGM96。Google Earth 地形网格不是本组样本直接生成的高精度 DEM。]]></description><Placemark><name>高程 73 米</name><description><![CDATA[<h3>高程 73 米</h3>SRTM / EGM96<br>70 米采样网格<br>WGS84：113.71042827°E，33.86046846°N]]></description><styleUrl>#elevation</styleUrl><Point><altitudeMode>clampToGround</altitudeMode><coordinates>113.71042827,33.86046846,0</coordinates></Point></Placemark><Placemark><name>高程 71 米</name><description><![CDATA[<h3>高程 71 米</h3>SRTM / EGM96<br>70 米采样网格<br>WGS84：113.71118477°E，33.86046846°N]]></description><styleUrl>#elevation</styleUrl><Point><altitudeMode>clampToGround</altitudeMode><coordinates>113.71118477,33.86046846,0</coordinates></Point></Placemark><Placemark><name>高程 71 米</name><description><![CDATA[<h3>高程 71 米</h3>SRTM / EGM96<br>70 米采样网格<br>WGS84：113.71194127°E，33.86046846°N]]></description><styleUrl>#elevation</styleUrl><Point><altitudeMode>clampToGround</altitudeMode><coordinates>113.71194127,33.86046846,0</coordinates></Point></Placemark><Placemark><name>高程 73 米</name><description><![CDATA[<h3>高程 73 米</h3>SRTM / EGM96<br>70 米采样网格<br>WGS84：113.70361979°E，33.86109955°N]]></description><styleUrl>#elevation</styleUrl><Point><altitudeMode>clampToGround</altitudeMode><coordinates>113.70361979,33.86109955,0</coordinates></Point></Placemark><Placemark><name>高程 73 米</name><description><![CDATA[<h3>高程 73 米</h3>SRTM / EGM96<br>70 米采样网格<br>WGS84：113.70437629°E，33.86109955°N]]></description><styleUrl>#elevation</styleUrl><Point><altitudeMode>clampToGround</altitudeMode><coordinates>113.70437629,33.86109955,0</coordinates></Point></Placemark><Placemark><name>高程 70 米</name><description><![CDATA[<h3>高程 70 米</h3>SRTM / EGM96<br>70 米采样网格<br>WGS84：113.70513279°E，33.86109955°N]]></description><styleUrl>#elevation</styleUrl><Point><altitudeMode>clampToGround</altitudeMode><coordinates>113.70513279,33.86109955,0</coordinates></Point></Placemark><Placemark><name>高程 72 米</name><description><![CDATA[<h3>高程 72 米</h3>SRTM / EGM96<br>70 米采样网格<br>WGS84：113.70588928°E，33.86109955°N]]></description><styleUrl>#elevation</styleUrl><Point><altitudeMode>clampToGround</altitudeMode><coordinates>113.70588928,33.86109955,0</coordinates></Point></Placemark><Placemark><name>高程 74 米</name><description><![CDATA[<h3>高程 74 米</h3>SRTM / EGM96<br>70 米采样网格<br>WGS84：113.70664578°E，33.86109955°N]]></description><styleUrl>#elevation</styleUrl><Point><altitudeMode>clampToGround</altitudeMode><coordinates>113.70664578,33.86109955,0</coordinates></Point></Placemark><Placemark><name>高程 73 米</name><description><![CDATA[<h3>高程 73 米</h3>SRTM / EGM96<br>70 米采样网格<br>WGS84：113.71042827°E，33.86109955°N]]></description><styleUrl>#elevation</styleUrl><Point><altitudeMode>clampToGround</altitudeMode><coordinates>113.71042827,33.86109955,0</coordinates></Point></Placemark><Placemark><name>高程 75 米</name><description><![CDATA[<h3>高程 75 米</h3>SRTM / EGM96<br>70 米采样网格<br>WGS84：113.71118477°E，33.86109955°N]]></description><styleUrl>#elevation</styleUrl><Point><altitudeMode>clampToGround</altitudeMode><coordinates>113.71118477,33.86109955,0</coordinates></Point></Placemark><Placemark><name>高程 75 米</name><description><![CDATA[<h3>高程 75 米</h3>SRTM / EGM96<br>70 米采样网格<br>WGS84：113.71194127°E，33.86109955°N]]></description><styleUrl>#elevation</styleUrl><Point><altitudeMode>clampToGround</altitudeMode><coordinates>113.71194127,33.86109955,0</coordinates></Point></Placemark><Placemark><name>高程 73 米</name><description><![CDATA[<h3>高程 73 米</h3>SRTM / EGM96<br>70 米采样网格<br>WGS84：113.70437629°E，33.86173063°N]]></description><styleUrl>#elevation</styleUrl><Point><altitudeMode>clampToGround</altitudeMode><coordinates>113.70437629,33.86173063,0</coordinates></Point></Placemark><Placemark><name>高程 74 米</name><description><![CDATA[<h3>高程 74 米</h3>SRTM / EGM96<br>70 米采样网格<br>WGS84：113.70513279°E，33.86173063°N]]></description><styleUrl>#elevation</styleUrl><Point><altitudeMode>clampToGround</altitudeMode><coordinates>113.70513279,33.86173063,0</coordinates></Point></Placemark><Placemark><name>高程 77 米</name><description><![CDATA[<h3>高程 77 米</h3>SRTM / EGM96<br>70 米采样网格<br>WGS84：113.70588928°E，33.86173063°N]]></description><styleUrl>#elevation</styleUrl><Point><altitudeMode>clampToGround</altitudeMode><coordinates>113.70588928,33.86173063,0</coordinates></Point></Placemark><Placemark><name>高程 75 米</name><description><![CDATA[<h3>高程 75 米</h3>SRTM / EGM96<br>70 米采样网格<br>WGS84：113.70664578°E，33.86173063°N]]></description><styleUrl>#elevation</styleUrl><Point><altitudeMode>clampToGround</altitudeMode><coordinates>113.70664578,33.86173063,0</coordinates></Point></Placemark><Placemark><name>高程 73 米</name><description><![CDATA[<h3>高程 73 米</h3>SRTM / EGM96<br>70 米采样网格<br>WGS84：113.71042827°E，33.86173063°N]]></description><styleUrl>#elevation</styleUrl><Point><altitudeMode>clampToGround</altitudeMode><coordinates>113.71042827,33.86173063,0</coordinates></Point></Placemark><Placemark><name>高程 73 米</name><description><![CDATA[<h3>高程 73 米</h3>SRTM / EGM96<br>70 米采样网格<br>WGS84：113.71118477°E，33.86173063°N]]></description><styleUrl>#elevation</styleUrl><Point><altitudeMode>clampToGround</altitudeMode><coordinates>113.71118477,33.86173063,0</coordinates></Point></Placemark><Placemark><name>高程 72 米</name><description><![CDATA[<h3>高程 72 米</h3>SRTM / EGM96<br>70 米采样网格<br>WGS84：113.71194127°E，33.86173063°N]]></description><styleUrl>#elevation</styleUrl><Point><altitudeMode>clampToGround</altitudeMode><coordinates>113.71194127,33.86173063,0</coordinates></Point></Placemark><Placemark><name>高程 73 米</name><description><![CDATA[<h3>高程 73 米</h3>SRTM / EGM96<br>70 米采样网格<br>WGS84：113.70437629°E，33.86236172°N]]></description><styleUrl>#elevation</styleUrl><Point><altitudeMode>clampToGround</altitudeMode><coordinates>113.70437629,33.86236172,0</coordinates></Point></Placemark><Placemark><name>高程 75 米</name><description><![CDATA[<h3>高程 75 米</h3>SRTM / EGM96<br>70 米采样网格<br>WGS84：113.70513279°E，33.86236172°N]]></description><styleUrl>#elevation</styleUrl><Point><altitudeMode>clampToGround</altitudeMode><coordinates>113.70513279,33.86236172,0</coordinates></Point></Placemark><Placemark><name>高程 78 米</name><description><![CDATA[<h3>高程 78 米</h3>SRTM / EGM96<br>70 米采样网格<br>WGS84：113.70588928°E，33.86236172°N]]></description><styleUrl>#elevation</styleUrl><Point><altitudeMode>clampToGround</altitudeMode><coordinates>113.70588928,33.86236172,0</coordinates></Point></Placemark><Placemark><name>高程 78 米</name><description><![CDATA[<h3>高程 78 米</h3>SRTM / EGM96<br>70 米采样网格<br>WGS84：113.70664578°E，33.86236172°N]]></description><styleUrl>#elevation</styleUrl><Point><altitudeMode>clampToGround</altitudeMode><coordinates>113.70664578,33.86236172,0</coordinates></Point></Placemark><Placemark><name>高程 70 米</name><description><![CDATA[<h3>高程 70 米</h3>SRTM / EGM96<br>70 米采样网格<br>WGS84：113.70891528°E，33.86236172°N]]></description><styleUrl>#elevation</styleUrl><Point><altitudeMode>clampToGround</altitudeMode><coordinates>113.70891528,33.86236172,0</coordinates></Point></Placemark><Placemark><name>高程 71 米</name><description><![CDATA[<h3>高程 71 米</h3>SRTM / EGM96<br>70 米采样网格<br>WGS84：113.70967177°E，33.86236172°N]]></description><styleUrl>#elevation</styleUrl><Point><altitudeMode>clampToGround</altitudeMode><coordinates>113.70967177,33.86236172,0</coordinates></Point></Placemark><Placemark><name>高程 72 米</name><description><![CDATA[<h3>高程 72 米</h3>SRTM / EGM96<br>70 米采样网格<br>WGS84：113.71042827°E，33.86236172°N]]></description><styleUrl>#elevation</styleUrl><Point><altitudeMode>clampToGround</altitudeMode><coordinates>113.71042827,33.86236172,0</coordinates></Point></Placemark><Placemark><name>高程 72 米</name><description><![CDATA[<h3>高程 72 米</h3>SRTM / EGM96<br>70 米采样网格<br>WGS84：113.71118477°E，33.86236172°N]]></description><styleUrl>#elevation</styleUrl><Point><altitudeMode>clampToGround</altitudeMode><coordinates>113.71118477,33.86236172,0</coordinates></Point></Placemark><Placemark><name>高程 71 米</name><description><![CDATA[<h3>高程 71 米</h3>SRTM / EGM96<br>70 米采样网格<br>WGS84：113.71194127°E，33.86236172°N]]></description><styleUrl>#elevation</styleUrl><Point><altitudeMode>clampToGround</altitudeMode><coordinates>113.71194127,33.86236172,0</coordinates></Point></Placemark><Placemark><name>高程 75 米</name><description><![CDATA[<h3>高程 75 米</h3>SRTM / EGM96<br>70 米采样网格<br>WGS84：113.70437629°E，33.86299281°N]]></description><styleUrl>#elevation</styleUrl><Point><altitudeMode>clampToGround</altitudeMode><coordinates>113.70437629,33.86299281,0</coordinates></Point></Placemark><Placemark><name>高程 78 米</name><description><![CDATA[<h3>高程 78 米</h3>SRTM / EGM96<br>70 米采样网格<br>WGS84：113.70513279°E，33.86299281°N]]></description><styleUrl>#elevation</styleUrl><Point><altitudeMode>clampToGround</altitudeMode><coordinates>113.70513279,33.86299281,0</coordinates></Point></Placemark><Placemark><name>高程 78 米</name><description><![CDATA[<h3>高程 78 米</h3>SRTM / EGM96<br>70 米采样网格<br>WGS84：113.70588928°E，33.86299281°N]]></description><styleUrl>#elevation</styleUrl><Point><altitudeMode>clampToGround</altitudeMode><coordinates>113.70588928,33.86299281,0</coordinates></Point></Placemark><Placemark><name>高程 78 米</name><description><![CDATA[<h3>高程 78 米</h3>SRTM / EGM96<br>70 米采样网格<br>WGS84：113.70664578°E，33.86299281°N]]></description><styleUrl>#elevation</styleUrl><Point><altitudeMode>clampToGround</altitudeMode><coordinates>113.70664578,33.86299281,0</coordinates></Point></Placemark><Placemark><name>高程 74 米</name><description><![CDATA[<h3>高程 74 米</h3>SRTM / EGM96<br>70 米采样网格<br>WGS84：113.70740228°E，33.86299281°N]]></description><styleUrl>#elevation</styleUrl><Point><altitudeMode>clampToGround</altitudeMode><coordinates>113.70740228,33.86299281,0</coordinates></Point></Placemark><Placemark><name>高程 73 米</name><description><![CDATA[<h3>高程 73 米</h3>SRTM / EGM96<br>70 米采样网格<br>WGS84：113.70815878°E，33.86299281°N]]></description><styleUrl>#elevation</styleUrl><Point><altitudeMode>clampToGround</altitudeMode><coordinates>113.70815878,33.86299281,0</coordinates></Point></Placemark><Placemark><name>高程 73 米</name><description><![CDATA[<h3>高程 73 米</h3>SRTM / EGM96<br>70 米采样网格<br>WGS84：113.70891528°E，33.86299281°N]]></description><styleUrl>#elevation</styleUrl><Point><altitudeMode>clampToGround</altitudeMode><coordinates>113.70891528,33.86299281,0</coordinates></Point></Placemark><Placemark><name>高程 73 米</name><description><![CDATA[<h3>高程 73 米</h3>SRTM / EGM96<br>70 米采样网格<br>WGS84：113.70967177°E，33.86299281°N]]></description><styleUrl>#elevation</styleUrl><Point><altitudeMode>clampToGround</altitudeMode><coordinates>113.70967177,33.86299281,0</coordinates></Point></Placemark><Placemark><name>高程 71 米</name><description><![CDATA[<h3>高程 71 米</h3>SRTM / EGM96<br>70 米采样网格<br>WGS84：113.71042827°E，33.86299281°N]]></description><styleUrl>#elevation</styleUrl><Point><altitudeMode>clampToGround</altitudeMode><coordinates>113.71042827,33.86299281,0</coordinates></Point></Placemark><Placemark><name>高程 72 米</name><description><![CDATA[<h3>高程 72 米</h3>SRTM / EGM96<br>70 米采样网格<br>WGS84：113.71118477°E，33.86299281°N]]></description><styleUrl>#elevation</styleUrl><Point><altitudeMode>clampToGround</altitudeMode><coordinates>113.71118477,33.86299281,0</coordinates></Point></Placemark><Placemark><name>高程 71 米</name><description><![CDATA[<h3>高程 71 米</h3>SRTM / EGM96<br>70 米采样网格<br>WGS84：113.71194127°E，33.86299281°N]]></description><styleUrl>#elevation</styleUrl><Point><altitudeMode>clampToGround</altitudeMode><coordinates>113.71194127,33.86299281,0</coordinates></Point></Placemark><Placemark><name>高程 73 米</name><description><![CDATA[<h3>高程 73 米</h3>SRTM / EGM96<br>70 米采样网格<br>WGS84：113.70437629°E，33.86362389°N]]></description><styleUrl>#elevation</styleUrl><Point><altitudeMode>clampToGround</altitudeMode><coordinates>113.70437629,33.86362389,0</coordinates></Point></Placemark><Placemark><name>高程 75 米</name><description><![CDATA[<h3>高程 75 米</h3>SRTM / EGM96<br>70 米采样网格<br>WGS84：113.70513279°E，33.86362389°N]]></description><styleUrl>#elevation</styleUrl><Point><altitudeMode>clampToGround</altitudeMode><coordinates>113.70513279,33.86362389,0</coordinates></Point></Placemark><Placemark><name>高程 76 米</name><description><![CDATA[<h3>高程 76 米</h3>SRTM / EGM96<br>70 米采样网格<br>WGS84：113.70588928°E，33.86362389°N]]></description><styleUrl>#elevation</styleUrl><Point><altitudeMode>clampToGround</altitudeMode><coordinates>113.70588928,33.86362389,0</coordinates></Point></Placemark><Placemark><name>高程 76 米</name><description><![CDATA[<h3>高程 76 米</h3>SRTM / EGM96<br>70 米采样网格<br>WGS84：113.70664578°E，33.86362389°N]]></description><styleUrl>#elevation</styleUrl><Point><altitudeMode>clampToGround</altitudeMode><coordinates>113.70664578,33.86362389,0</coordinates></Point></Placemark><Placemark><name>高程 74 米</name><description><![CDATA[<h3>高程 74 米</h3>SRTM / EGM96<br>70 米采样网格<br>WGS84：113.70740228°E，33.86362389°N]]></description><styleUrl>#elevation</styleUrl><Point><altitudeMode>clampToGround</altitudeMode><coordinates>113.70740228,33.86362389,0</coordinates></Point></Placemark><Placemark><name>高程 74 米</name><description><![CDATA[<h3>高程 74 米</h3>SRTM / EGM96<br>70 米采样网格<br>WGS84：113.70815878°E，33.86362389°N]]></description><styleUrl>#elevation</styleUrl><Point><altitudeMode>clampToGround</altitudeMode><coordinates>113.70815878,33.86362389,0</coordinates></Point></Placemark><Placemark><name>高程 73 米</name><description><![CDATA[<h3>高程 73 米</h3>SRTM / EGM96<br>70 米采样网格<br>WGS84：113.70891528°E，33.86362389°N]]></description><styleUrl>#elevation</styleUrl><Point><altitudeMode>clampToGround</altitudeMode><coordinates>113.70891528,33.86362389,0</coordinates></Point></Placemark><Placemark><name>高程 70 米</name><description><![CDATA[<h3>高程 70 米</h3>SRTM / EGM96<br>70 米采样网格<br>WGS84：113.70967177°E，33.86362389°N]]></description><styleUrl>#elevation</styleUrl><Point><altitudeMode>clampToGround</altitudeMode><coordinates>113.70967177,33.86362389,0</coordinates></Point></Placemark><Placemark><name>高程 71 米</name><description><![CDATA[<h3>高程 71 米</h3>SRTM / EGM96<br>70 米采样网格<br>WGS84：113.71042827°E，33.86362389°N]]></description><styleUrl>#elevation</styleUrl><Point><altitudeMode>clampToGround</altitudeMode><coordinates>113.71042827,33.86362389,0</coordinates></Point></Placemark><Placemark><name>高程 75 米</name><description><![CDATA[<h3>高程 75 米</h3>SRTM / EGM96<br>70 米采样网格<br>WGS84：113.71118477°E，33.86362389°N]]></description><styleUrl>#elevation</styleUrl><Point><altitudeMode>clampToGround</altitudeMode><coordinates>113.71118477,33.86362389,0</coordinates></Point></Placemark><Placemark><name>高程 69 米</name><description><![CDATA[<h3>高程 69 米</h3>SRTM / EGM96<br>70 米采样网格<br>WGS84：113.71194127°E，33.86362389°N]]></description><styleUrl>#elevation</styleUrl><Point><altitudeMode>clampToGround</altitudeMode><coordinates>113.71194127,33.86362389,0</coordinates></Point></Placemark><Placemark><name>高程 76 米</name><description><![CDATA[<h3>高程 76 米</h3>SRTM / EGM96<br>70 米采样网格<br>WGS84：113.70588928°E，33.86425498°N]]></description><styleUrl>#elevation</styleUrl><Point><altitudeMode>clampToGround</altitudeMode><coordinates>113.70588928,33.86425498,0</coordinates></Point></Placemark><Placemark><name>高程 75 米</name><description><![CDATA[<h3>高程 75 米</h3>SRTM / EGM96<br>70 米采样网格<br>WGS84：113.70664578°E，33.86425498°N]]></description><styleUrl>#elevation</styleUrl><Point><altitudeMode>clampToGround</altitudeMode><coordinates>113.70664578,33.86425498,0</coordinates></Point></Placemark><Placemark><name>高程 73 米</name><description><![CDATA[<h3>高程 73 米</h3>SRTM / EGM96<br>70 米采样网格<br>WGS84：113.70740228°E，33.86425498°N]]></description><styleUrl>#elevation</styleUrl><Point><altitudeMode>clampToGround</altitudeMode><coordinates>113.70740228,33.86425498,0</coordinates></Point></Placemark><Placemark><name>高程 71 米</name><description><![CDATA[<h3>高程 71 米</h3>SRTM / EGM96<br>70 米采样网格<br>WGS84：113.70815878°E，33.86425498°N]]></description><styleUrl>#elevation</styleUrl><Point><altitudeMode>clampToGround</altitudeMode><coordinates>113.70815878,33.86425498,0</coordinates></Point></Placemark><Placemark><name>高程 73 米</name><description><![CDATA[<h3>高程 73 米</h3>SRTM / EGM96<br>70 米采样网格<br>WGS84：113.70891528°E，33.86425498°N]]></description><styleUrl>#elevation</styleUrl><Point><altitudeMode>clampToGround</altitudeMode><coordinates>113.70891528,33.86425498,0</coordinates></Point></Placemark><Placemark><name>高程 72 米</name><description><![CDATA[<h3>高程 72 米</h3>SRTM / EGM96<br>70 米采样网格<br>WGS84：113.70967177°E，33.86425498°N]]></description><styleUrl>#elevation</styleUrl><Point><altitudeMode>clampToGround</altitudeMode><coordinates>113.70967177,33.86425498,0</coordinates></Point></Placemark><Placemark><name>高程 70 米</name><description><![CDATA[<h3>高程 70 米</h3>SRTM / EGM96<br>70 米采样网格<br>WGS84：113.71042827°E，33.86425498°N]]></description><styleUrl>#elevation</styleUrl><Point><altitudeMode>clampToGround</altitudeMode><coordinates>113.71042827,33.86425498,0</coordinates></Point></Placemark><Placemark><name>高程 73 米</name><description><![CDATA[<h3>高程 73 米</h3>SRTM / EGM96<br>70 米采样网格<br>WGS84：113.71118477°E，33.86425498°N]]></description><styleUrl>#elevation</styleUrl><Point><altitudeMode>clampToGround</altitudeMode><coordinates>113.71118477,33.86425498,0</coordinates></Point></Placemark><Placemark><name>高程 73 米</name><description><![CDATA[<h3>高程 73 米</h3>SRTM / EGM96<br>70 米采样网格<br>WGS84：113.71194127°E，33.86425498°N]]></description><styleUrl>#elevation</styleUrl><Point><altitudeMode>clampToGround</altitudeMode><coordinates>113.71194127,33.86425498,0</coordinates></Point></Placemark><Placemark><name>高程 71 米</name><description><![CDATA[<h3>高程 71 米</h3>SRTM / EGM96<br>70 米采样网格<br>WGS84：113.71269776°E，33.86425498°N]]></description><styleUrl>#elevation</styleUrl><Point><altitudeMode>clampToGround</altitudeMode><coordinates>113.71269776,33.86425498,0</coordinates></Point></Placemark><Placemark><name>高程 75 米</name><description><![CDATA[<h3>高程 75 米</h3>SRTM / EGM96<br>70 米采样网格<br>WGS84：113.70815878°E，33.86488606°N]]></description><styleUrl>#elevation</styleUrl><Point><altitudeMode>clampToGround</altitudeMode><coordinates>113.70815878,33.86488606,0</coordinates></Point></Placemark><Placemark><name>高程 73 米</name><description><![CDATA[<h3>高程 73 米</h3>SRTM / EGM96<br>70 米采样网格<br>WGS84：113.70891528°E，33.86488606°N]]></description><styleUrl>#elevation</styleUrl><Point><altitudeMode>clampToGround</altitudeMode><coordinates>113.70891528,33.86488606,0</coordinates></Point></Placemark><Placemark><name>高程 75 米</name><description><![CDATA[<h3>高程 75 米</h3>SRTM / EGM96<br>70 米采样网格<br>WGS84：113.70967177°E，33.86488606°N]]></description><styleUrl>#elevation</styleUrl><Point><altitudeMode>clampToGround</altitudeMode><coordinates>113.70967177,33.86488606,0</coordinates></Point></Placemark><Placemark><name>高程 72 米</name><description><![CDATA[<h3>高程 72 米</h3>SRTM / EGM96<br>70 米采样网格<br>WGS84：113.71042827°E，33.86488606°N]]></description><styleUrl>#elevation</styleUrl><Point><altitudeMode>clampToGround</altitudeMode><coordinates>113.71042827,33.86488606,0</coordinates></Point></Placemark><Placemark><name>高程 71 米</name><description><![CDATA[<h3>高程 71 米</h3>SRTM / EGM96<br>70 米采样网格<br>WGS84：113.71118477°E，33.86488606°N]]></description><styleUrl>#elevation</styleUrl><Point><altitudeMode>clampToGround</altitudeMode><coordinates>113.71118477,33.86488606,0</coordinates></Point></Placemark><Placemark><name>高程 74 米</name><description><![CDATA[<h3>高程 74 米</h3>SRTM / EGM96<br>70 米采样网格<br>WGS84：113.71194127°E，33.86488606°N]]></description><styleUrl>#elevation</styleUrl><Point><altitudeMode>clampToGround</altitudeMode><coordinates>113.71194127,33.86488606,0</coordinates></Point></Placemark><Placemark><name>高程 73 米</name><description><![CDATA[<h3>高程 73 米</h3>SRTM / EGM96<br>70 米采样网格<br>WGS84：113.71269776°E，33.86488606°N]]></description><styleUrl>#elevation</styleUrl><Point><altitudeMode>clampToGround</altitudeMode><coordinates>113.71269776,33.86488606,0</coordinates></Point></Placemark><Placemark><name>高程 73 米</name><description><![CDATA[<h3>高程 73 米</h3>SRTM / EGM96<br>70 米采样网格<br>WGS84：113.70815878°E，33.86551715°N]]></description><styleUrl>#elevation</styleUrl><Point><altitudeMode>clampToGround</altitudeMode><coordinates>113.70815878,33.86551715,0</coordinates></Point></Placemark><Placemark><name>高程 74 米</name><description><![CDATA[<h3>高程 74 米</h3>SRTM / EGM96<br>70 米采样网格<br>WGS84：113.70891528°E，33.86551715°N]]></description><styleUrl>#elevation</styleUrl><Point><altitudeMode>clampToGround</altitudeMode><coordinates>113.70891528,33.86551715,0</coordinates></Point></Placemark><Placemark><name>高程 75 米</name><description><![CDATA[<h3>高程 75 米</h3>SRTM / EGM96<br>70 米采样网格<br>WGS84：113.70967177°E，33.86551715°N]]></description><styleUrl>#elevation</styleUrl><Point><altitudeMode>clampToGround</altitudeMode><coordinates>113.70967177,33.86551715,0</coordinates></Point></Placemark><Placemark><name>高程 75 米</name><description><![CDATA[<h3>高程 75 米</h3>SRTM / EGM96<br>70 米采样网格<br>WGS84：113.71042827°E，33.86551715°N]]></description><styleUrl>#elevation</styleUrl><Point><altitudeMode>clampToGround</altitudeMode><coordinates>113.71042827,33.86551715,0</coordinates></Point></Placemark><Placemark><name>高程 73 米</name><description><![CDATA[<h3>高程 73 米</h3>SRTM / EGM96<br>70 米采样网格<br>WGS84：113.71118477°E，33.86551715°N]]></description><styleUrl>#elevation</styleUrl><Point><altitudeMode>clampToGround</altitudeMode><coordinates>113.71118477,33.86551715,0</coordinates></Point></Placemark><Placemark><name>高程 75 米</name><description><![CDATA[<h3>高程 75 米</h3>SRTM / EGM96<br>70 米采样网格<br>WGS84：113.71194127°E，33.86551715°N]]></description><styleUrl>#elevation</styleUrl><Point><altitudeMode>clampToGround</altitudeMode><coordinates>113.71194127,33.86551715,0</coordinates></Point></Placemark><Placemark><name>高程 78 米</name><description><![CDATA[<h3>高程 78 米</h3>SRTM / EGM96<br>70 米采样网格<br>WGS84：113.71269776°E，33.86551715°N]]></description><styleUrl>#elevation</styleUrl><Point><altitudeMode>clampToGround</altitudeMode><coordinates>113.71269776,33.86551715,0</coordinates></Point></Placemark><Placemark><name>高程 75 米</name><description><![CDATA[<h3>高程 75 米</h3>SRTM / EGM96<br>70 米采样网格<br>WGS84：113.70815878°E，33.86614823°N]]></description><styleUrl>#elevation</styleUrl><Point><altitudeMode>clampToGround</altitudeMode><coordinates>113.70815878,33.86614823,0</coordinates></Point></Placemark><Placemark><name>高程 79 米</name><description><![CDATA[<h3>高程 79 米</h3>SRTM / EGM96<br>70 米采样网格<br>WGS84：113.70891528°E，33.86614823°N]]></description><styleUrl>#elevation</styleUrl><Point><altitudeMode>clampToGround</altitudeMode><coordinates>113.70891528,33.86614823,0</coordinates></Point></Placemark><Placemark><name>高程 74 米</name><description><![CDATA[<h3>高程 74 米</h3>SRTM / EGM96<br>70 米采样网格<br>WGS84：113.70967177°E，33.86614823°N]]></description><styleUrl>#elevation</styleUrl><Point><altitudeMode>clampToGround</altitudeMode><coordinates>113.70967177,33.86614823,0</coordinates></Point></Placemark><Placemark><name>高程 73 米</name><description><![CDATA[<h3>高程 73 米</h3>SRTM / EGM96<br>70 米采样网格<br>WGS84：113.71042827°E，33.86614823°N]]></description><styleUrl>#elevation</styleUrl><Point><altitudeMode>clampToGround</altitudeMode><coordinates>113.71042827,33.86614823,0</coordinates></Point></Placemark><Placemark><name>高程 73 米</name><description><![CDATA[<h3>高程 73 米</h3>SRTM / EGM96<br>70 米采样网格<br>WGS84：113.71118477°E，33.86614823°N]]></description><styleUrl>#elevation</styleUrl><Point><altitudeMode>clampToGround</altitudeMode><coordinates>113.71118477,33.86614823,0</coordinates></Point></Placemark><Placemark><name>高程 76 米</name><description><![CDATA[<h3>高程 76 米</h3>SRTM / EGM96<br>70 米采样网格<br>WGS84：113.71194127°E，33.86614823°N]]></description><styleUrl>#elevation</styleUrl><Point><altitudeMode>clampToGround</altitudeMode><coordinates>113.71194127,33.86614823,0</coordinates></Point></Placemark><Placemark><name>高程 77 米</name><description><![CDATA[<h3>高程 77 米</h3>SRTM / EGM96<br>70 米采样网格<br>WGS84：113.71269776°E，33.86614823°N]]></description><styleUrl>#elevation</styleUrl><Point><altitudeMode>clampToGround</altitudeMode><coordinates>113.71269776,33.86614823,0</coordinates></Point></Placemark><Placemark><name>高程 72 米</name><description><![CDATA[<h3>高程 72 米</h3>SRTM / EGM96<br>70 米采样网格<br>WGS84：113.70815878°E，33.86677932°N]]></description><styleUrl>#elevation</styleUrl><Point><altitudeMode>clampToGround</altitudeMode><coordinates>113.70815878,33.86677932,0</coordinates></Point></Placemark><Placemark><name>高程 74 米</name><description><![CDATA[<h3>高程 74 米</h3>SRTM / EGM96<br>70 米采样网格<br>WGS84：113.70891528°E，33.86677932°N]]></description><styleUrl>#elevation</styleUrl><Point><altitudeMode>clampToGround</altitudeMode><coordinates>113.70891528,33.86677932,0</coordinates></Point></Placemark><Placemark><name>高程 77 米</name><description><![CDATA[<h3>高程 77 米</h3>SRTM / EGM96<br>70 米采样网格<br>WGS84：113.70967177°E，33.86677932°N]]></description><styleUrl>#elevation</styleUrl><Point><altitudeMode>clampToGround</altitudeMode><coordinates>113.70967177,33.86677932,0</coordinates></Point></Placemark><Placemark><name>高程 75 米</name><description><![CDATA[<h3>高程 75 米</h3>SRTM / EGM96<br>70 米采样网格<br>WGS84：113.71042827°E，33.86677932°N]]></description><styleUrl>#elevation</styleUrl><Point><altitudeMode>clampToGround</altitudeMode><coordinates>113.71042827,33.86677932,0</coordinates></Point></Placemark><Placemark><name>高程 72 米</name><description><![CDATA[<h3>高程 72 米</h3>SRTM / EGM96<br>70 米采样网格<br>WGS84：113.71118477°E，33.86677932°N]]></description><styleUrl>#elevation</styleUrl><Point><altitudeMode>clampToGround</altitudeMode><coordinates>113.71118477,33.86677932,0</coordinates></Point></Placemark><Placemark><name>高程 75 米</name><description><![CDATA[<h3>高程 75 米</h3>SRTM / EGM96<br>70 米采样网格<br>WGS84：113.71194127°E，33.86677932°N]]></description><styleUrl>#elevation</styleUrl><Point><altitudeMode>clampToGround</altitudeMode><coordinates>113.71194127,33.86677932,0</coordinates></Point></Placemark><Placemark><name>高程 73 米</name><description><![CDATA[<h3>高程 73 米</h3>SRTM / EGM96<br>70 米采样网格<br>WGS84：113.71269776°E，33.86677932°N]]></description><styleUrl>#elevation</styleUrl><Point><altitudeMode>clampToGround</altitudeMode><coordinates>113.71269776,33.86677932,0</coordinates></Point></Placemark><Placemark><name>高程 75 米</name><description><![CDATA[<h3>高程 75 米</h3>SRTM / EGM96<br>70 米采样网格<br>WGS84：113.70815878°E，33.86741041°N]]></description><styleUrl>#elevation</styleUrl><Point><altitudeMode>clampToGround</altitudeMode><coordinates>113.70815878,33.86741041,0</coordinates></Point></Placemark><Placemark><name>高程 74 米</name><description><![CDATA[<h3>高程 74 米</h3>SRTM / EGM96<br>70 米采样网格<br>WGS84：113.70891528°E，33.86741041°N]]></description><styleUrl>#elevation</styleUrl><Point><altitudeMode>clampToGround</altitudeMode><coordinates>113.70891528,33.86741041,0</coordinates></Point></Placemark><Placemark><name>高程 78 米</name><description><![CDATA[<h3>高程 78 米</h3>SRTM / EGM96<br>70 米采样网格<br>WGS84：113.70967177°E，33.86741041°N]]></description><styleUrl>#elevation</styleUrl><Point><altitudeMode>clampToGround</altitudeMode><coordinates>113.70967177,33.86741041,0</coordinates></Point></Placemark><Placemark><name>高程 77 米</name><description><![CDATA[<h3>高程 77 米</h3>SRTM / EGM96<br>70 米采样网格<br>WGS84：113.71042827°E，33.86741041°N]]></description><styleUrl>#elevation</styleUrl><Point><altitudeMode>clampToGround</altitudeMode><coordinates>113.71042827,33.86741041,0</coordinates></Point></Placemark><Placemark><name>高程 76 米</name><description><![CDATA[<h3>高程 76 米</h3>SRTM / EGM96<br>70 米采样网格<br>WGS84：113.71118477°E，33.86741041°N]]></description><styleUrl>#elevation</styleUrl><Point><altitudeMode>clampToGround</altitudeMode><coordinates>113.71118477,33.86741041,0</coordinates></Point></Placemark><Placemark><name>高程 74 米</name><description><![CDATA[<h3>高程 74 米</h3>SRTM / EGM96<br>70 米采样网格<br>WGS84：113.71194127°E，33.86741041°N]]></description><styleUrl>#elevation</styleUrl><Point><altitudeMode>clampToGround</altitudeMode><coordinates>113.71194127,33.86741041,0</coordinates></Point></Placemark><Placemark><name>高程 73 米</name><description><![CDATA[<h3>高程 73 米</h3>SRTM / EGM96<br>70 米采样网格<br>WGS84：113.71269776°E，33.86741041°N]]></description><styleUrl>#elevation</styleUrl><Point><altitudeMode>clampToGround</altitudeMode><coordinates>113.71269776,33.86741041,0</coordinates></Point></Placemark><Placemark><name>高程 74 米</name><description><![CDATA[<h3>高程 74 米</h3>SRTM / EGM96<br>70 米采样网格<br>WGS84：113.70815878°E，33.86804149°N]]></description><styleUrl>#elevation</styleUrl><Point><altitudeMode>clampToGround</altitudeMode><coordinates>113.70815878,33.86804149,0</coordinates></Point></Placemark><Placemark><name>高程 74 米</name><description><![CDATA[<h3>高程 74 米</h3>SRTM / EGM96<br>70 米采样网格<br>WGS84：113.70891528°E，33.86804149°N]]></description><styleUrl>#elevation</styleUrl><Point><altitudeMode>clampToGround</altitudeMode><coordinates>113.70891528,33.86804149,0</coordinates></Point></Placemark><Placemark><name>高程 74 米</name><description><![CDATA[<h3>高程 74 米</h3>SRTM / EGM96<br>70 米采样网格<br>WGS84：113.70967177°E，33.86804149°N]]></description><styleUrl>#elevation</styleUrl><Point><altitudeMode>clampToGround</altitudeMode><coordinates>113.70967177,33.86804149,0</coordinates></Point></Placemark><Placemark><name>高程 76 米</name><description><![CDATA[<h3>高程 76 米</h3>SRTM / EGM96<br>70 米采样网格<br>WGS84：113.70815878°E，33.86867258°N]]></description><styleUrl>#elevation</styleUrl><Point><altitudeMode>clampToGround</altitudeMode><coordinates>113.70815878,33.86867258,0</coordinates></Point></Placemark><Placemark><name>高程 75 米</name><description><![CDATA[<h3>高程 75 米</h3>SRTM / EGM96<br>70 米采样网格<br>WGS84：113.70891528°E，33.86867258°N]]></description><styleUrl>#elevation</styleUrl><Point><altitudeMode>clampToGround</altitudeMode><coordinates>113.70891528,33.86867258,0</coordinates></Point></Placemark><Placemark><name>高程 73 米</name><description><![CDATA[<h3>高程 73 米</h3>SRTM / EGM96<br>70 米采样网格<br>WGS84：113.70967177°E，33.86867258°N]]></description><styleUrl>#elevation</styleUrl><Point><altitudeMode>clampToGround</altitudeMode><coordinates>113.70967177,33.86867258,0</coordinates></Point></Placemark><Placemark><name>高程 76 米</name><description><![CDATA[<h3>高程 76 米</h3>SRTM / EGM96<br>70 米采样网格<br>WGS84：113.70891528°E，33.86930366°N]]></description><styleUrl>#elevation</styleUrl><Point><altitudeMode>clampToGround</altitudeMode><coordinates>113.70891528,33.86930366,0</coordinates></Point></Placemark><Placemark><name>高程 75 米</name><description><![CDATA[<h3>高程 75 米</h3>SRTM / EGM96<br>70 米采样网格<br>WGS84：113.70967177°E，33.86930366°N]]></description><styleUrl>#elevation</styleUrl><Point><altitudeMode>clampToGround</altitudeMode><coordinates>113.70967177,33.86930366,0</coordinates></Point></Placemark></Folder><Folder><name>五、内置历史卫星影像覆盖层</name><open>1</open><GroundOverlay><name>Esri World Imagery · 2017-07-24</name><Icon><href>files/satellite.jpg</href></Icon><LatLonBox><north>33.8726381910</north><south>33.8571419108</south><east>113.7175991854</east><west>113.6989369257</west><rotation>0</rotation></LatLonBox></GroundOverlay></Folder><ExtendedData><Data name="coordinate_system"><value>WGS84 / EPSG:4326</value></Data><Data name="created_at"><value>2026-09-15</value></Data></ExtendedData></Document></kml>